{"type":"FeatureCollection","crs":{"type":"name","properties":{"name":"urn:ogc:def:crs:EPSG::3414"}},"features":[{"type":"Feature","properties":{"Name":"Livewire (Marina Bay Sands)","Address":"2 Bayfront Avenue, #01-01 The Shoppes at Marina Bay Sands   Singapore 018972","PostalCode":18972,"Xcoord":30841.5597,"Ycoord":29598.565,"SingPoolsB":1,"Gp1Gp2Winn":5},"geometry":{"type":"Point","coordinates":[103.85885111126525,1.283953287289991]}},{"type":"Feature","properties":{"Name":"Livewire (Resorts World Sentosa)","Address":"26 Sentosa Gateway #B1-208   Singapore 098138","PostalCode":98138,"Xcoord":26703.8717,"Ycoord":26525.699,"SingPoolsB":1,"Gp1Gp2Winn":11},"geometry":{"type":"Point","coordinates":[103.82167248081124,1.2561634641870054]}},{"type":"Feature","properties":{"Name":"SportsBuzz (Kranji)","Address":"Lotus Lounge, Level 2, 1 Turf Club Avenue Singapore Racecourse   Singapore 738078","PostalCode":738078,"Xcoord":20117.9342,"Ycoord":44888.0601,"SingPoolsB":1,"Gp1Gp2Winn":0},"geometry":{"type":"Point","coordinates":[103.7624911215422,1.4222250734307536]}},{"type":"Feature","properties":{"Name":"SportsBuzz (PoMo)","Address":"1 Selegie Rd PoMo #01-01   Singapore 188306","PostalCode":188306,"Xcoord":29776.9544,"Ycoord":31382.1849,"SingPoolsB":1,"Gp1Gp2Winn":44},"geometry":{"type":"Point","coordinates":[103.84928531469737,1.3000837963437388]}},{"type":"Feature","properties":{"Name":"Prime Serangoon North","Address":"Blk 542B Serangoon North Ave 3 #02-01   Singapore 552542","PostalCode":552542,"Xcoord":32238.6895,"Ycoord":39518.7648,"SingPoolsB":1,"Gp1Gp2Winn":0},"geometry":{"type":"Point","coordinates":[103.87140624425555,1.3736678846361865]}},{"type":"Feature","properties":{"Name":"Singapore Pools Woodlands Centre","Address":"1A Woodlands Centre Road #01-26   Singapore 731001","PostalCode":731001,"Xcoord":21012.1477,"Ycoord":46987.3186,"SingPoolsB":1,"Gp1Gp2Winn":3},"geometry":{"type":"Point","coordinates":[103.77052591473387,1.4412102301503216]}},{"type":"Feature","properties":{"Name":"Singapore Pools 64 Circuit Rd Branch","Address":"Blk 64 Circuit Rd #01-355   Singapore 370064","PostalCode":370064,"Xcoord":33990.3867,"Ycoord":34355.5268,"SingPoolsB":1,"Gp1Gp2Winn":17},"geometry":{"type":"Point","coordinates":[103.88714546921994,1.3269731127613396]}},{"type":"Feature","properties":{"Name":"Singapore Pools 88 Circuit Rd Branch","Address":"Blk 88 Circuit Rd #01-961   Singapore 370088","PostalCode":370088,"Xcoord":33847.3816,"Ycoord":33976.0384,"SingPoolsB":1,"Gp1Gp2Winn":16},"geometry":{"type":"Point","coordinates":[103.88586041850374,1.3235411831820003]}},{"type":"Feature","properties":{"Name":"Singapore Pools Anchorvale Rd Branch","Address":"Blk 308 Anchorvale Rd #01-05   Singapore 540308","PostalCode":540308,"Xcoord":33909.9294,"Ycoord":41274.5191,"SingPoolsB":1,"Gp1Gp2Winn":21},"geometry":{"type":"Point","coordinates":[103.88642388225824,1.3895460028123008]}},{"type":"Feature","properties":{"Name":"Singapore Pools Ang Mo Kio N2 Branch","Address":"Blk 202 Ang Mo Kio Ave 3 #01-1662/1664   Singapore 560202","PostalCode":560202,"Xcoord":29246.0643,"Ycoord":38942.5987,"SingPoolsB":1,"Gp1Gp2Winn":25},"geometry":{"type":"Point","coordinates":[103.84451533687479,1.3684575232219978]}},{"type":"Feature","properties":{"Name":"Singapore Pools Ang Mo Kio N2A Branch","Address":"Blk 226A Ang Mo Kio Ave 1 #01-625   Singapore 561226","PostalCode":561226,"Xcoord":28663.5864,"Ycoord":38836.0958,"SingPoolsB":1,"Gp1Gp2Winn":22},"geometry":{"type":"Point","coordinates":[103.83928136376277,1.3674943678257936]}},{"type":"Feature","properties":{"Name":"Singapore Pools Ang Mo Kio N4 Branch","Address":"Blk 447 Ang Mo Kio Ave 10 #01-1685   Singapore 560447","PostalCode":560447,"Xcoord":30520.751,"Ycoord":38834.7589,"SingPoolsB":1,"Gp1Gp2Winn":25},"geometry":{"type":"Point","coordinates":[103.85596927760083,1.367482177397511]}},{"type":"Feature","properties":{"Name":"Singapore Pools Ang Mo Kio N6 Branch","Address":"Blk 630 Ang Mo Kio Ave 4 #01-968   Singapore 560630","PostalCode":560630,"Xcoord":28862.4499,"Ycoord":40278.2253,"SingPoolsB":1,"Gp1Gp2Winn":31},"geometry":{"type":"Point","coordinates":[103.84106833244284,1.3805364662962085]}},{"type":"Feature","properties":{"Name":"Singapore Pools Ang Mo Kio N7 Branch","Address":"Blk 726 Ang Mo Kio Ave 6 #01-4158   Singapore 560726","PostalCode":560726,"Xcoord":29461.341,"Ycoord":39420.9746,"SingPoolsB":1,"Gp1Gp2Winn":27},"geometry":{"type":"Point","coordinates":[103.84644977189227,1.3727837740184734]}},{"type":"Feature","properties":{"Name":"Singapore Pools Balestier Rd Branch","Address":"Blk 2 Balestier Rd #01-641   Singapore 320002","PostalCode":320002,"Xcoord":29061.585,"Ycoord":34234.9389,"SingPoolsB":1,"Gp1Gp2Winn":9},"geometry":{"type":"Point","coordinates":[103.84285749621179,1.3258831290234918]}},{"type":"Feature","properties":{"Name":"Singapore Pools Bedok North Branch","Address":"Blk 509 Bedok North St 3 #01-129   Singapore 460509","PostalCode":460509,"Xcoord":38881.0986,"Ycoord":35029.4514,"SingPoolsB":1,"Gp1Gp2Winn":13},"geometry":{"type":"Point","coordinates":[103.9310913883264,1.3330664844346771]}},{"type":"Feature","properties":{"Name":"Singapore Pools Bedok Town Centre Branch","Address":"Blk 204 Bedok North Street 1 #01-415   Singapore 460204","PostalCode":460204,"Xcoord":38779.6775,"Ycoord":34246.3019,"SingPoolsB":1,"Gp1Gp2Winn":5},"geometry":{"type":"Point","coordinates":[103.930179787421,1.3259840041087123]}},{"type":"Feature","properties":{"Name":"Singapore Pools Beo Crescent Branch","Address":"Blk 36 Beo Crescent #01-45   Singapore 160036","PostalCode":160036,"Xcoord":27316.1698,"Ycoord":30080.2699,"SingPoolsB":1,"Gp1Gp2Winn":15},"geometry":{"type":"Point","coordinates":[103.82717408527286,1.2883097779983999]}},{"type":"Feature","properties":{"Name":"Singapore Pools Bishan N1 Branch","Address":"Blk 152 Bishan St 11 #01-211   Singapore 570152","PostalCode":570152,"Xcoord":30373.1713,"Ycoord":36422.4437,"SingPoolsB":1,"Gp1Gp2Winn":14},"geometry":{"type":"Point","coordinates":[103.85464298068133,1.345666071559229]}},{"type":"Feature","properties":{"Name":"Singapore Pools Bishan N2 Branch","Address":"Blk 279 Bishan St 24 #01-52   Singapore 570279","PostalCode":570279,"Xcoord":29183.7498,"Ycoord":37727.0741,"SingPoolsB":1,"Gp1Gp2Winn":21},"geometry":{"type":"Point","coordinates":[103.8439553494112,1.357464754957591]}},{"type":"Feature","properties":{"Name":"Singapore Pools Bukit Batok Central Branch","Address":"Blk 641 Bukit Batok Central #01-46   Singapore 650641","PostalCode":650641,"Xcoord":18878.7185,"Ycoord":36790.2988,"SingPoolsB":1,"Gp1Gp2Winn":37},"geometry":{"type":"Point","coordinates":[103.75135817747818,1.3489915265128765]}},{"type":"Feature","properties":{"Name":"Singapore Pools Bukit Batok N3 Branch","Address":"Blk 324 Bukit Batok St 33 #01-47   Singapore 650324","PostalCode":650324,"Xcoord":18464.4221,"Ycoord":38247.1701,"SingPoolsB":1,"Gp1Gp2Winn":11},"geometry":{"type":"Point","coordinates":[103.74763500552992,1.3621668079221565]}},{"type":"Feature","properties":{"Name":"Singapore Pools Bukit Gombak Branch","Address":"Blk 374 Bukit Batok St 31 #01-170   Singapore 650374","PostalCode":650374,"Xcoord":18794.5687,"Ycoord":37738.3187,"SingPoolsB":1,"Gp1Gp2Winn":30},"geometry":{"type":"Point","coordinates":[103.75060174908921,1.3575650463563933]}},{"type":"Feature","properties":{"Name":"Singapore Pools Bukit Panjang Branch","Address":"Blk 257 Bangkit Rd #01-49   Singapore 670257","PostalCode":670257,"Xcoord":21310.9273,"Ycoord":40054.0922,"SingPoolsB":1,"Gp1Gp2Winn":42},"geometry":{"type":"Point","coordinates":[103.77321234810228,1.378508735688813]}},{"type":"Feature","properties":{"Name":"Singapore Pools Canberra Link Branch","Address":"Blk 505 Canberra Link #01-02   Singapore 750505","PostalCode":750505,"Xcoord":26803.0712,"Ycoord":47987.1332,"SingPoolsB":1,"Gp1Gp2Winn":20},"geometry":{"type":"Point","coordinates":[103.82256296178866,1.450253036015419]}},{"type":"Feature","properties":{"Name":"Singapore Pools Chai Chee Branch","Address":"Blk 36 Chai Chee Ave #01-167   Singapore 461036","PostalCode":461036,"Xcoord":38250.9551,"Ycoord":34176.5844,"SingPoolsB":1,"Gp1Gp2Winn":14},"geometry":{"type":"Point","coordinates":[103.9254289128155,1.3253536869689104]}},{"type":"Feature","properties":{"Name":"Singapore Pools Changi Rd Branch","Address":"324K Changi Rd   Singapore 419799","PostalCode":419799,"Xcoord":36320.8611,"Ycoord":33354.6498,"SingPoolsB":1,"Gp1Gp2Winn":13},"geometry":{"type":"Point","coordinates":[103.90808577107002,1.3179209952462112]}},{"type":"Feature","properties":{"Name":"Singapore Pools Cheong Chin Nam Rd Branch","Address":"5 Cheong Chin Nam Rd   Singapore 599730","PostalCode":599730,"Xcoord":21536.1841,"Ycoord":36071.2567,"SingPoolsB":1,"Gp1Gp2Winn":11},"geometry":{"type":"Point","coordinates":[103.77523730676538,1.3424894602139152]}},{"type":"Feature","properties":{"Name":"Singapore Pools Chin Swee Branch","Address":"Blk 52 Chin Swee Rd #01-65/69   Singapore 160052","PostalCode":160052,"Xcoord":28918.9838,"Ycoord":29944.402,"SingPoolsB":1,"Gp1Gp2Winn":20},"geometry":{"type":"Point","coordinates":[103.84157602061993,1.2870810305003102]}},{"type":"Feature","properties":{"Name":"Singapore Pools Chinatown Point Branch","Address":"133 New Bridge Road, Chinatown Point #01-36   Singapore 059413","PostalCode":59413,"Xcoord":29299.7691,"Ycoord":29740.086,"SingPoolsB":1,"Gp1Gp2Winn":0},"geometry":{"type":"Point","coordinates":[103.84499752220029,1.2852332549085654]}},{"type":"Feature","properties":{"Name":"Singapore Pools Choa Chu Kang Branch","Address":"Blk 303 Choa Chu Kang Ave 4 #01-721   Singapore 680303","PostalCode":680303,"Xcoord":18037.252,"Ycoord":40722.0307,"SingPoolsB":1,"Gp1Gp2Winn":41},"geometry":{"type":"Point","coordinates":[103.74379576537294,1.3845483947327462]}},{"type":"Feature","properties":{"Name":"Singapore Pools Clementi N3 Branch","Address":"Blk 325 Clementi Ave 5 #01-145   Singapore 120325","PostalCode":120325,"Xcoord":20599.2016,"Ycoord":33044.0803,"SingPoolsB":1,"Gp1Gp2Winn":26},"geometry":{"type":"Point","coordinates":[103.7668186914949,1.3151125513616526]}},{"type":"Feature","properties":{"Name":"Singapore Pools Clementi N7 Branch","Address":"Blk 722 Clementi West St 2 #01-164   Singapore 120722","PostalCode":120722,"Xcoord":20258.9599,"Ycoord":31694.8728,"SingPoolsB":1,"Gp1Gp2Winn":42},"geometry":{"type":"Point","coordinates":[103.76376178684292,1.302910719680862]}},{"type":"Feature","properties":{"Name":"Singapore Pools Clementi Town Centre Branch","Address":"Blk 446 Clementi Ave 3 #01-183   Singapore 120446","PostalCode":120446,"Xcoord":20388.5979,"Ycoord":32756.3219,"SingPoolsB":1,"Gp1Gp2Winn":28},"geometry":{"type":"Point","coordinates":[103.76492638323566,1.3125101163611848]}},{"type":"Feature","properties":{"Name":"Singapore Pools Commonwealth Crescent Branch","Address":"Blk 116 Commonwealth Crescent #01-135   Singapore 140116","PostalCode":140116,"Xcoord":24295.2512,"Ycoord":32144.0506,"SingPoolsB":1,"Gp1Gp2Winn":25},"geometry":{"type":"Point","coordinates":[103.80002965388613,1.3069736698966556]}},{"type":"Feature","properties":{"Name":"Singapore Pools Commonwealth Dr Branch","Address":"Blk 74 Commonwealth Dr #01-459   Singapore 140074","PostalCode":140074,"Xcoord":23862.125,"Ycoord":31482.102,"SingPoolsB":1,"Gp1Gp2Winn":24},"geometry":{"type":"Point","coordinates":[103.79613789792015,1.3009871862392832]}},{"type":"Feature","properties":{"Name":"Singapore Pools Empress Rd Branch","Address":"Blk 8 Empress Rd #01-35   Singapore 260008","PostalCode":260008,"Xcoord":24890.5342,"Ycoord":33189.5235,"SingPoolsB":1,"Gp1Gp2Winn":11},"geometry":{"type":"Point","coordinates":[103.80537844862124,1.3164286224529107]}},{"type":"Feature","properties":{"Name":"Singapore Pools Everton Park Branch","Address":"Blk 7 Everton Park #01-15   Singapore 080007","PostalCode":80007,"Xcoord":28661.0808,"Ycoord":28832.9907,"SingPoolsB":1,"Gp1Gp2Winn":14},"geometry":{"type":"Point","coordinates":[103.83925863470401,1.2770298229968056]}},{"type":"Feature","properties":{"Name":"Singapore Pools Fajar Rd Branch","Address":"Blk 445 Fajar Rd Fajar Shopping Centre #02-540   Singapore 670445","PostalCode":670445,"Xcoord":21037.436,"Ycoord":40633.0632,"SingPoolsB":1,"Gp1Gp2Winn":19},"geometry":{"type":"Point","coordinates":[103.77075469192866,1.3837446752924758]}},{"type":"Feature","properties":{"Name":"Singapore Pools Gek Poh Shopping Centre","Address":"Blk 762 Jurong West Street 75 Gek Poh Shopping Centre #01-338   Singapore 640762","PostalCode":640762,"Xcoord":12911.5597,"Ycoord":36762.935,"SingPoolsB":1,"Gp1Gp2Winn":30},"geometry":{"type":"Point","coordinates":[103.69773962968452,1.3487416466007025]}},{"type":"Feature","properties":{"Name":"Singapore Pools Geylang Bahru Branch","Address":"Blk 57 Geylang Bahru #01-3503   Singapore 330057","PostalCode":330057,"Xcoord":31987.9227,"Ycoord":33974.9697,"SingPoolsB":1,"Gp1Gp2Winn":19},"geometry":{"type":"Point","coordinates":[103.86915219205177,1.3235318177001358]}},{"type":"Feature","properties":{"Name":"Singapore Pools Geylang Rd Branch","Address":"149 Geylang Rd #01-02   Singapore 389233","PostalCode":389233,"Xcoord":32549.8739,"Ycoord":32633.9744,"SingPoolsB":1,"Gp1Gp2Winn":15},"geometry":{"type":"Point","coordinates":[103.87420142495675,1.3114042544448465]}},{"type":"Feature","properties":{"Name":"Singapore Pools Ghim Moh Branch","Address":"Blk 21 Ghim Moh Rd #01-161   Singapore 270021","PostalCode":270021,"Xcoord":23017.3276,"Ycoord":32489.9062,"SingPoolsB":1,"Gp1Gp2Winn":27},"geometry":{"type":"Point","coordinates":[103.78854685074317,1.3101012853984138]}},{"type":"Feature","properties":{"Name":"Singapore Pools Great World City Branch","Address":"1 Kim Seng Promenade #B1-13C Great World City   Singapore 237994","PostalCode":237994,"Xcoord":27836.8459,"Ycoord":30644.2948,"SingPoolsB":1,"Gp1Gp2Winn":6},"geometry":{"type":"Point","coordinates":[103.83185257002336,1.2934106280989954]}},{"type":"Feature","properties":{"Name":"Singapore Pools Holland Drive Branch","Address":"Blk 46 Holland Dr #01-371/373   Singapore 270046","PostalCode":270046,"Xcoord":23479.2394,"Ycoord":32343.5516,"SingPoolsB":1,"Gp1Gp2Winn":22},"geometry":{"type":"Point","coordinates":[103.7926973728995,1.3087777775413827]}},{"type":"Feature","properties":{"Name":"Singapore Pools Hougang N1 Branch","Address":"Blk 106 Hougang Ave 1 #01-1209/1211   Singapore 530106","PostalCode":530106,"Xcoord":34383.7664,"Ycoord":37311.2062,"SingPoolsB":1,"Gp1Gp2Winn":63},"geometry":{"type":"Point","coordinates":[103.89068082091534,1.3537031348298652]}},{"type":"Feature","properties":{"Name":"Singapore Pools Hougang N2 Branch","Address":"Blk 211 Hougang St 21 #01-309   Singapore 530211","PostalCode":530211,"Xcoord":34049.3808,"Ycoord":37925.3133,"SingPoolsB":1,"Gp1Gp2Winn":18},"geometry":{"type":"Point","coordinates":[103.88767627632208,1.3592569678636144]}},{"type":"Feature","properties":{"Name":"Singapore Pools Hougang N3 Branch","Address":"Blk 322 Hougang Ave 5 #01-70   Singapore 530322","PostalCode":530322,"Xcoord":35104.7595,"Ycoord":38776.5325,"SingPoolsB":1,"Gp1Gp2Winn":29},"geometry":{"type":"Point","coordinates":[103.89715975272964,1.3669548524626833]}},{"type":"Feature","properties":{"Name":"Singapore Pools IMM Branch","Address":"2 Jurong East St 21 #02-25, IMM Building   Singapore 609601","PostalCode":609601,"Xcoord":18420.6213,"Ycoord":35167.6468,"SingPoolsB":1,"Gp1Gp2Winn":10},"geometry":{"type":"Point","coordinates":[103.74724240451877,1.3343167115227763]}},{"type":"Feature","properties":{"Name":"Singapore Pools Jln Batu Branch","Address":"Blk 7 Jln Batu #01-99   Singapore 431007","PostalCode":431007,"Xcoord":33597.0697,"Ycoord":31634.513,"SingPoolsB":1,"Gp1Gp2Winn":17},"geometry":{"type":"Point","coordinates":[103.88361081025896,1.3023653089280165]}},{"type":"Feature","properties":{"Name":"Singapore Pools Jln Tiga Branch","Address":"Blk 43 Jln Tiga #01-08   Singapore 390043","PostalCode":390043,"Xcoord":33721.3702,"Ycoord":32272.1665,"SingPoolsB":1,"Gp1Gp2Winn":26},"geometry":{"type":"Point","coordinates":[103.88472782387292,1.3081319974996384]}},{"type":"Feature","properties":{"Name":"Singapore Pools Jurong East Branch","Address":"Blk 351 Jurong East St 31 #01-93   Singapore 600351","PostalCode":600351,"Xcoord":16587.7768,"Ycoord":36332.277,"SingPoolsB":1,"Gp1Gp2Winn":37},"geometry":{"type":"Point","coordinates":[103.7307728309787,1.3448485613445877]}},{"type":"Feature","properties":{"Name":"Singapore Pools Jurong West N2 Branch","Address":"Blk 276 Jurong West 25 #01-05   Singapore 640276","PostalCode":640276,"Xcoord":13577.73,"Ycoord":37301.4145,"SingPoolsB":1,"Gp1Gp2Winn":21},"geometry":{"type":"Point","coordinates":[103.70372531240149,1.3536117792893587]}},{"type":"Feature","properties":{"Name":"Singapore Pools Jurong West N4 Branch","Address":"Blk 498 Jurong West St 41 #01-472   Singapore 640498","PostalCode":640498,"Xcoord":15868.2521,"Ycoord":36717.6399,"SingPoolsB":1,"Gp1Gp2Winn":45},"geometry":{"type":"Point","coordinates":[103.72430731787493,1.348333358118354]}},{"type":"Feature","properties":{"Name":"Singapore Pools Jurong West N5 Branch","Address":"Blk 508 Jurong West St 52 #01-166   Singapore 640508","PostalCode":640508,"Xcoord":15247.0524,"Ycoord":36761.8396,"SingPoolsB":1,"Gp1Gp2Winn":54},"geometry":{"type":"Point","coordinates":[103.71872544283974,1.3487328257012088]}},{"type":"Feature","properties":{"Name":"Singapore Pools King George's Ave Branch","Address":"Blk 803 King George's Ave #01-200/202   Singapore 200803","PostalCode":200803,"Xcoord":31068.204,"Ycoord":32236.1949,"SingPoolsB":1,"Gp1Gp2Winn":33},"geometry":{"type":"Point","coordinates":[103.86088785709069,1.3078070604614271]}},{"type":"Feature","properties":{"Name":"Singapore Pools Lengkok Bahru Branch","Address":"Blk 63B Lengkok Bahru #01-364   Singapore 152063","PostalCode":152063,"Xcoord":26012.0396,"Ycoord":30160.6907,"SingPoolsB":1,"Gp1Gp2Winn":20},"geometry":{"type":"Point","coordinates":[103.81545593725131,1.2890370198152468]}},{"type":"Feature","properties":{"Name":"Singapore Pools Lor 1 Toa Payoh Branch","Address":"Blk 111 Lor 1 Toa Payoh #01-354   Singapore 310111","PostalCode":310111,"Xcoord":29354.8571,"Ycoord":35930.7639,"SingPoolsB":1,"Gp1Gp2Winn":21},"geometry":{"type":"Point","coordinates":[103.84549278035611,1.3412195573351287]}},{"type":"Feature","properties":{"Name":"Singapore Pools Lor 25A Geylang Branch","Address":"62 Lor 25A Geylang   Singapore 388251","PostalCode":388251,"Xcoord":33558.9854,"Ycoord":33085.8449,"SingPoolsB":1,"Gp1Gp2Winn":39},"geometry":{"type":"Point","coordinates":[103.88326886512004,1.315490644695159]}},{"type":"Feature","properties":{"Name":"Singapore Pools Lor 4 Toa Payoh Branch","Address":"Blk 85B Lor 4 Toa Payoh #01-340   Singapore 310085","PostalCode":310085,"Xcoord":29681.5961,"Ycoord":35388.3296,"SingPoolsB":1,"Gp1Gp2Winn":27},"geometry":{"type":"Point","coordinates":[103.84842869562733,1.3363139577033771]}},{"type":"Feature","properties":{"Name":"Singapore Pools Lor 8 Toa Payoh Branch","Address":"Blk 212 Lor 8 Toa Payoh #01-39   Singapore 310212","PostalCode":310212,"Xcoord":30338.8452,"Ycoord":35868.0348,"SingPoolsB":1,"Gp1Gp2Winn":16},"geometry":{"type":"Point","coordinates":[103.85433449680187,1.340652197384023]}},{"type":"Feature","properties":{"Name":"Singapore Pools Lorong Lew Lian Branch","Address":"Blk 2 Lor Lew Lian #01-46   Singapore 531002","PostalCode":531002,"Xcoord":32710.8138,"Ycoord":36965.5195,"SingPoolsB":1,"Gp1Gp2Winn":16},"geometry":{"type":"Point","coordinates":[103.87564821621625,1.350577179028482]}},{"type":"Feature","properties":{"Name":"Singapore Pools MacPherson Branch","Address":"401 MacPherson Rd Hotel Windsor Shopping Centre #01-01   Singapore 368125","PostalCode":368125,"Xcoord":33143.1559,"Ycoord":34879.3462,"SingPoolsB":1,"Gp1Gp2Winn":17},"geometry":{"type":"Point","coordinates":[103.87953272846089,1.331710503238429]}},{"type":"Feature","properties":{"Name":"Singapore Pools New Upper Changi Branch","Address":"Blk 26 New Upp Changi Rd #01-666/668   Singapore 462026","PostalCode":462026,"Xcoord":39227.8401,"Ycoord":33954.083,"SingPoolsB":1,"Gp1Gp2Winn":18},"geometry":{"type":"Point","coordinates":[103.93420665878944,1.3233411220484783]}},{"type":"Feature","properties":{"Name":"Singapore Pools Pasir Ris N2 Branch","Address":"Blk 258 Pasir Ris St 21 Loyang Point #02-311   Singapore 510258","PostalCode":510258,"Xcoord":42614.025,"Ycoord":38789.1655,"SingPoolsB":1,"Gp1Gp2Winn":42},"geometry":{"type":"Point","coordinates":[103.96463561037267,1.367066341837937]}},{"type":"Feature","properties":{"Name":"Singapore Pools Pasir Ris N7 Branch","Address":"Blk 735 Pasir Ris St 72 Pasir Ris West Plaza #01-358   Singapore 510735","PostalCode":510735,"Xcoord":39497.2756,"Ycoord":40195.2439,"SingPoolsB":1,"Gp1Gp2Winn":27},"geometry":{"type":"Point","coordinates":[103.93663006137004,1.3797837682624159]}},{"type":"Feature","properties":{"Name":"Singapore Pools Peace Centre Branch","Address":"1 Sophia Rd Peace Centre #01-24/25   Singapore 228149","PostalCode":228149,"Xcoord":29808.6198,"Ycoord":31499.763,"SingPoolsB":1,"Gp1Gp2Winn":26},"geometry":{"type":"Point","coordinates":[103.84956984936373,1.301147129422616]}},{"type":"Feature","properties":{"Name":"Singapore Pools People's Park Centre","Address":"101 Upp Cross St, People's Park Centre, #01-12   Singapore 058357","PostalCode":58357,"Xcoord":29186.5251,"Ycoord":29799.3947,"SingPoolsB":1,"Gp1Gp2Winn":60},"geometry":{"type":"Point","coordinates":[103.84397998200402,1.2857696264409513]}},{"type":"Feature","properties":{"Name":"Singapore Pools Potong Pasir Branch","Address":"Blk 148 Potong Pasir Ave 1 #01-73   Singapore 350148","PostalCode":350148,"Xcoord":31858.5602,"Ycoord":34989.7343,"SingPoolsB":1,"Gp1Gp2Winn":9},"geometry":{"type":"Point","coordinates":[103.86798992895582,1.3327090044285341]}},{"type":"Feature","properties":{"Name":"Singapore Pools Rochor Centre Branch","Address":"1 Rochor Rd Rochor Centre #01-626/628   Singapore 180001","PostalCode":180001,"Xcoord":30429.7478,"Ycoord":31594.3157,"SingPoolsB":1,"Gp1Gp2Winn":39},"geometry":{"type":"Point","coordinates":[103.85515097359207,1.3020021883298654]}},{"type":"Feature","properties":{"Name":"Singapore Pools Serangoon Central Branch","Address":"Blk 254 Serangoon Central Dr #01-209   Singapore 550254","PostalCode":550254,"Xcoord":32217.2998,"Ycoord":37350.8618,"SingPoolsB":1,"Gp1Gp2Winn":32},"geometry":{"type":"Point","coordinates":[103.87121373594339,1.35406215053433]}},{"type":"Feature","properties":{"Name":"Singapore Pools Siglap Branch","Address":"697B East Coast Road   Singapore 459060","PostalCode":459060,"Xcoord":37877.694,"Ycoord":32700.8196,"SingPoolsB":1,"Gp1Gp2Winn":29},"geometry":{"type":"Point","coordinates":[103.92207449158514,1.3120075308732453]}},{"type":"Feature","properties":{"Name":"Singapore Pools Silat Ave Branch","Address":"Blk 147 Silat Ave #01-24   Singapore 160147","PostalCode":160147,"Xcoord":27752.3598,"Ycoord":28860.9449,"SingPoolsB":1,"Gp1Gp2Winn":11},"geometry":{"type":"Point","coordinates":[103.83109344040017,1.2772826368782866]}},{"type":"Feature","properties":{"Name":"Singapore Pools Sim Lim Square Branch","Address":"1 Rochor Canal Rd Sim Lim Square #B1-37   Singapore 188504","PostalCode":188504,"Xcoord":30176.5209,"Ycoord":31707.1881,"SingPoolsB":1,"Gp1Gp2Winn":30},"geometry":{"type":"Point","coordinates":[103.85287562212804,1.3030229852889104]}},{"type":"Feature","properties":{"Name":"Singapore Pools Suntec City","Address":"3 Temasek Boulevard Suntec City Tower 3 #01-138   Singapore 038983","PostalCode":38983,"Xcoord":30681.6075,"Ycoord":30785.8423,"SingPoolsB":1,"Gp1Gp2Winn":17},"geometry":{"type":"Point","coordinates":[103.85741397878844,1.2946906192846606]}},{"type":"Feature","properties":{"Name":"Singapore Pools Tampines Mart Branch","Address":"11 Tampines St 32 Tampines Mart #01-03   Singapore 529287","PostalCode":529287,"Xcoord":42109.7762,"Ycoord":37384.0075,"SingPoolsB":1,"Gp1Gp2Winn":28},"geometry":{"type":"Point","coordinates":[103.96010393345794,1.3543588700763174]}},{"type":"Feature","properties":{"Name":"Singapore Pools Tampines N4 Branch","Address":"Blk 481 Tampines St 44 #01-277   Singapore 520481","PostalCode":520481,"Xcoord":41350.1485,"Ycoord":38187.6455,"SingPoolsB":1,"Gp1Gp2Winn":11},"geometry":{"type":"Point","coordinates":[103.9532785618067,1.3616270194211524]}},{"type":"Feature","properties":{"Name":"Singapore Pools Tanjong Pagar Branch","Address":"Blk 1 Tanjong Pagar Plaza #01-49/50   Singapore 082001","PostalCode":82001,"Xcoord":29042.4355,"Ycoord":28671.779,"SingPoolsB":1,"Gp1Gp2Winn":42},"geometry":{"type":"Point","coordinates":[103.84268524235485,1.2755718706241705]}},{"type":"Feature","properties":{"Name":"Singapore Pools Teban Gardens Branch","Address":"Blk 37 Teban Gardens Rd #01-308   Singapore 600037","PostalCode":600037,"Xcoord":17909.6467,"Ycoord":33642.1233,"SingPoolsB":1,"Gp1Gp2Winn":29},"geometry":{"type":"Point","coordinates":[103.74265151300891,1.320520268367959]}},{"type":"Feature","properties":{"Name":"Singapore Pools Teck Whye Branch","Address":"Blk 141 Teck Whye Lane #01-271   Singapore 680141","PostalCode":680141,"Xcoord":19014.8628,"Ycoord":40264.5928,"SingPoolsB":1,"Gp1Gp2Winn":34},"geometry":{"type":"Point","coordinates":[103.75258047016821,1.380411811766874]}},{"type":"Feature","properties":{"Name":"Singapore Pools Telok Blangah Crescent Branch","Address":"Blk 6 Telok Blangah Crescent #01-418   Singapore 090006","PostalCode":90006,"Xcoord":26348.0649,"Ycoord":28956.8228,"SingPoolsB":1,"Gp1Gp2Winn":15},"geometry":{"type":"Point","coordinates":[103.81847532557491,1.278149680742807]}},{"type":"Feature","properties":{"Name":"Singapore Pools Upp Boon Keng Branch","Address":"Blk 18 Upp Boon Keng Rd #01-1149/1151   Singapore 380018","PostalCode":380018,"Xcoord":32322.0001,"Ycoord":33003.4797,"SingPoolsB":1,"Gp1Gp2Winn":17},"geometry":{"type":"Point","coordinates":[103.8721539191114,1.3147459619998931]}},{"type":"Feature","properties":{"Name":"Singapore Pools Upp Serangoon Branch","Address":"1028 Upper Serangoon Rd   Singapore 534766","PostalCode":534766,"Xcoord":34140.9765,"Ycoord":38332.7146,"SingPoolsB":1,"Gp1Gp2Winn":13},"geometry":{"type":"Point","coordinates":[103.88849940788727,1.3629413394976353]}},{"type":"Feature","properties":{"Name":"Singapore Pools Upp Thomson Branch","Address":"200 Upp Thomson Rd Thomson Imperial Court #01-06   Singapore 574424","PostalCode":574424,"Xcoord":28305.9513,"Ycoord":37097.2797,"SingPoolsB":1,"Gp1Gp2Winn":17},"geometry":{"type":"Point","coordinates":[103.83606774617384,1.35176914052585]}},{"type":"Feature","properties":{"Name":"Singapore Pools Whampoa Dr Branch","Address":"Blk 88 Whampoa Dr #01-857   Singapore 320088","PostalCode":320088,"Xcoord":30432.0191,"Ycoord":33944.2557,"SingPoolsB":1,"Gp1Gp2Winn":33},"geometry":{"type":"Point","coordinates":[103.8551715666222,1.3232542146978314]}},{"type":"Feature","properties":{"Name":"Singapore Pools Woodlands 888 Plaza Branch","Address":"Blk 888 Woodlands Dr 50 888 Plaza #01-711   Singapore 730888","PostalCode":730888,"Xcoord":23770.901,"Ycoord":46534.8212,"SingPoolsB":1,"Gp1Gp2Winn":32},"geometry":{"type":"Point","coordinates":[103.7953160648561,1.437118560722883]}},{"type":"Feature","properties":{"Name":"Singapore Pools Woodlands N3 Branch","Address":"Blk 305 Woodlands St 31 #01-77   Singapore 730305","PostalCode":730305,"Xcoord":21409.8301,"Ycoord":45787.4386,"SingPoolsB":1,"Gp1Gp2Winn":9},"geometry":{"type":"Point","coordinates":[103.7740997566771,1.4303590522554397]}},{"type":"Feature","properties":{"Name":"Singapore Pools Woodlands N5 Branch","Address":"Blk 548 Woodlands Dr 44 Vista Point #02-04   Singapore 730548","PostalCode":730548,"Xcoord":23617.0642,"Ycoord":45843.1564,"SingPoolsB":1,"Gp1Gp2Winn":15},"geometry":{"type":"Point","coordinates":[103.7939338007303,1.4308633726412163]}},{"type":"Feature","properties":{"Name":"Singapore Pools Woodlands N8 Branch","Address":"Blk 883 Woodlands St 82 #01-472   Singapore 730883","PostalCode":730883,"Xcoord":23271.2176,"Ycoord":47168.1086,"SingPoolsB":1,"Gp1Gp2Winn":35},"geometry":{"type":"Point","coordinates":[103.7908258246101,1.4428457011239824]}},{"type":"Feature","properties":{"Name":"Singapore Pools Yishun N1 Branch","Address":"Blk 101 Yishun Ave 5 #01-37   Singapore 760101","PostalCode":760101,"Xcoord":27371.2413,"Ycoord":45808.4632,"SingPoolsB":1,"Gp1Gp2Winn":40},"geometry":{"type":"Point","coordinates":[103.82766859373412,1.4305499532973516]}},{"type":"Feature","properties":{"Name":"Singapore Pools Yishun N2 Branch","Address":"Blk 256 Yishun Ring Rd #01-1001   Singapore 760256","PostalCode":760256,"Xcoord":28741.292,"Ycoord":46200.1892,"SingPoolsB":1,"Gp1Gp2Winn":15},"geometry":{"type":"Point","coordinates":[103.8399797902238,1.4340925787743282]}},{"type":"Feature","properties":{"Name":"Singapore Pools Yishun N4 Branch","Address":"Blk 415 Yishun Ave 11 #01-311   Singapore 760415","PostalCode":760415,"Xcoord":29396.7967,"Ycoord":45131.9526,"SingPoolsB":1,"Gp1Gp2Winn":21},"geometry":{"type":"Point","coordinates":[103.84587006931145,1.424431808770995]}},{"type":"Feature","properties":{"Name":"Singapore Pools Yishun N7 Branch","Address":"Blk 761 Yishun St 72 #01-340   Singapore 760761","PostalCode":760761,"Xcoord":27995.2742,"Ycoord":45239.1879,"SingPoolsB":1,"Gp1Gp2Winn":11},"geometry":{"type":"Point","coordinates":[103.83327611282479,1.4254016403842904]}},{"type":"Feature","properties":{"Name":"7-Eleven Bedok North","Address":"Blk 123 Bedok North St 2 #01-158   Singapore 460123","PostalCode":460123,"Xcoord":39577.2597,"Ycoord":34601.3595,"SingPoolsB":0,"Gp1Gp2Winn":15},"geometry":{"type":"Point","coordinates":[103.93734661960141,1.3291947214602804]}},{"type":"Feature","properties":{"Name":"7-Eleven Big Mac Centre","Address":"51 Ang Mo Kio Ave 3 Big Mac Centre #01-01A   Singapore 569922","PostalCode":569922,"Xcoord":29539.9184,"Ycoord":39035.5305,"SingPoolsB":0,"Gp1Gp2Winn":18},"geometry":{"type":"Point","coordinates":[103.8471558259738,1.3692979513660877]}},{"type":"Feature","properties":{"Name":"7-Eleven Bukit Batok West","Address":"Blk 132 Bukit Batok West Ave 6 #01-304   Singapore 650132","PostalCode":650132,"Xcoord":18252.6055,"Ycoord":36947.7798,"SingPoolsB":0,"Gp1Gp2Winn":16},"geometry":{"type":"Point","coordinates":[103.7457321151001,1.3504155297312845]}},{"type":"Feature","properties":{"Name":"7-Eleven Changi","Address":"38-A Changi Rd   Singapore 419701","PostalCode":419701,"Xcoord":35290.4842,"Ycoord":33165.1515,"SingPoolsB":0,"Gp1Gp2Winn":17},"geometry":{"type":"Point","coordinates":[103.89882726734037,1.3162075029857538]}},{"type":"Feature","properties":{"Name":"7-Eleven Choa Chu Kang Drive","Address":"Blk 689B Choa Chu Kang Dr #01-306   Singapore 682689","PostalCode":682689,"Xcoord":18705.2353,"Ycoord":42777.0616,"SingPoolsB":0,"Gp1Gp2Winn":22},"geometry":{"type":"Point","coordinates":[103.74979744036513,1.403133557084644]}},{"type":"Feature","properties":{"Name":"7-Eleven Circular Rd","Address":"58 Circular Rd #01-01   Singapore 049413","PostalCode":49413,"Xcoord":29772.2435,"Ycoord":29832.4175,"SingPoolsB":0,"Gp1Gp2Winn":12},"geometry":{"type":"Point","coordinates":[103.8492428978823,1.286068245497237]}},{"type":"Feature","properties":{"Name":"7-Eleven Clementi Street 11","Address":"Blk 109 Clementi St 11 #01-15   Singapore 120109","PostalCode":120109,"Xcoord":21019.5171,"Ycoord":33793.5979,"SingPoolsB":0,"Gp1Gp2Winn":11},"geometry":{"type":"Point","coordinates":[103.77059526593906,1.3218910180342753]}},{"type":"Feature","properties":{"Name":"7-Eleven Erskine Road","Address":"7 Erskine Rd   Singapore 069320","PostalCode":69320,"Xcoord":29318.3724,"Ycoord":29296.068,"SingPoolsB":0,"Gp1Gp2Winn":15},"geometry":{"type":"Point","coordinates":[103.84516466180582,1.2812177111789935]}},{"type":"Feature","properties":{"Name":"7-Eleven Eunos","Address":"Blk 1A Eunos Crescent #01-2469/2471   Singapore 401001","PostalCode":401001,"Xcoord":35724.393,"Ycoord":33726.959,"SingPoolsB":0,"Gp1Gp2Winn":42},"geometry":{"type":"Point","coordinates":[103.90272629623131,1.3212881816592061]}},{"type":"Feature","properties":{"Name":"7-Eleven Foch Road","Address":"27 Foch Rd Hoa Nam Building #01-07/08   Singapore 209264","PostalCode":209264,"Xcoord":30964.8285,"Ycoord":32779.7492,"SingPoolsB":0,"Gp1Gp2Winn":10},"geometry":{"type":"Point","coordinates":[103.85995903083239,1.3127227833860928]}},{"type":"Feature","properties":{"Name":"7-Eleven Jln Leban","Address":"14 Jln Leban Sembawang Hill Estates   Singapore 577553","PostalCode":577553,"Xcoord":27547.8027,"Ycoord":39287.8573,"SingPoolsB":0,"Gp1Gp2Winn":28},"geometry":{"type":"Point","coordinates":[103.8292552649333,1.3715799414245782]}},{"type":"Feature","properties":{"Name":"7-Eleven Kim Tian","Address":"8 Kim Tian Rd   Singapore 169247","PostalCode":169247,"Xcoord":27550.4624,"Ycoord":29723.9023,"SingPoolsB":0,"Gp1Gp2Winn":13},"geometry":{"type":"Point","coordinates":[103.82927930518771,1.2850869187705205]}},{"type":"Feature","properties":{"Name":"7-Eleven McCallum Street","Address":"3 McCallum Street   Singapore 069044","PostalCode":69044,"Xcoord":29586.7306,"Ycoord":29126.6339,"SingPoolsB":0,"Gp1Gp2Winn":14},"geometry":{"type":"Point","coordinates":[103.8475759548213,1.2796853962785608]}},{"type":"Feature","properties":{"Name":"7-Eleven Owen Road","Address":"Blk 45 Owen Rd #01-295   Singapore 210045","PostalCode":210045,"Xcoord":29947.9834,"Ycoord":33097.6078,"SingPoolsB":0,"Gp1Gp2Winn":23},"geometry":{"type":"Point","coordinates":[103.85082219461856,1.3155974653304452]}},{"type":"Feature","properties":{"Name":"7-Eleven Plaza Singapura","Address":"68 Orchard Rd Plaza Singapura #01-51   Singapore 238839","PostalCode":238839,"Xcoord":29307.5238,"Ycoord":31463.6673,"SingPoolsB":0,"Gp1Gp2Winn":15},"geometry":{"type":"Point","coordinates":[103.84506727283771,1.300820717743537]}},{"type":"Feature","properties":{"Name":"7-Eleven Sin Ming","Address":"244H Upp Thomson Rd   Singapore 574369","PostalCode":574369,"Xcoord":28145.7847,"Ycoord":37284.5043,"SingPoolsB":0,"Gp1Gp2Winn":17},"geometry":{"type":"Point","coordinates":[103.83462854817903,1.3534623343889651]}},{"type":"Feature","properties":{"Name":"7-Eleven Sixth Avenue","Address":"6 Sixth Ave   Singapore 276472","PostalCode":276472,"Xcoord":23746.631,"Ycoord":34812.7016,"SingPoolsB":0,"Gp1Gp2Winn":25},"geometry":{"type":"Point","coordinates":[103.79509967349951,1.3311079305082185]}},{"type":"Feature","properties":{"Name":"7-Eleven Turf City","Address":"200 Turf Club Rd Turf City #01-49/50   Singapore 287994","PostalCode":287994,"Xcoord":23598.8366,"Ycoord":35536.1692,"SingPoolsB":0,"Gp1Gp2Winn":11},"geometry":{"type":"Point","coordinates":[103.79377155362023,1.3376506923807017]}},{"type":"Feature","properties":{"Name":"7-Eleven Upp Thomson","Address":"912 Upp Thomson Rd   Singapore 787113","PostalCode":787113,"Xcoord":26310.1585,"Ycoord":42315.5239,"SingPoolsB":0,"Gp1Gp2Winn":29},"geometry":{"type":"Point","coordinates":[103.81813397858733,1.3989610272844024]}},{"type":"Feature","properties":{"Name":"7-Eleven Yishun","Address":"Blk 102 Yishun Ave 5 #01-137   Singapore 760102","PostalCode":760102,"Xcoord":27493.0307,"Ycoord":45816.0208,"SingPoolsB":0,"Gp1Gp2Winn":80},"geometry":{"type":"Point","coordinates":[103.82876298520613,1.4306183039529397]}},{"type":"Feature","properties":{"Name":"A P Mini Mart","Address":"Blk 234 Lor 8 Toa Payoh #01-286   Singapore 310234","PostalCode":310234,"Xcoord":30739.5612,"Ycoord":35639.9422,"SingPoolsB":0,"Gp1Gp2Winn":17},"geometry":{"type":"Point","coordinates":[103.85793514806387,1.3385893753006868]}},{"type":"Feature","properties":{"Name":"Afro Asia Co Pte Ltd","Address":"Blk 604, Yishun Street 61, #01-323   Singapore 760604","PostalCode":760604,"Xcoord":28248.0142,"Ycoord":44830.5012,"SingPoolsB":0,"Gp1Gp2Winn":15},"geometry":{"type":"Point","coordinates":[103.83554720941548,1.4217056244515245]}},{"type":"Feature","properties":{"Name":"B.H. Mini Mart","Address":"Blk 137 Potong Pasir Ave 3 #01-142   Singapore 350137","PostalCode":350137,"Xcoord":31638.7822,"Ycoord":35114.0125,"SingPoolsB":0,"Gp1Gp2Winn":15},"geometry":{"type":"Point","coordinates":[103.86601511412783,1.3338329594067786]}},{"type":"Feature","properties":{"Name":"Balestier Khalsa Football Club","Address":"297 Lor 6 Toa Payoh Toa Payoh Stadium   Singapore 319389","PostalCode":319389,"Xcoord":30030.789,"Ycoord":34721.8429,"SingPoolsB":0,"Gp1Gp2Winn":9},"geometry":{"type":"Point","coordinates":[103.85156635199273,1.3302864670769785]}},{"type":"Feature","properties":{"Name":"Cheers - Hougang Central","Address":"Blk 810 Hougang Central #01-214   Singapore 530810","PostalCode":530810,"Xcoord":34713.8493,"Ycoord":39290.6505,"SingPoolsB":0,"Gp1Gp2Winn":22},"geometry":{"type":"Point","coordinates":[103.89364727199482,1.3716044408398858]}},{"type":"Feature","properties":{"Name":"Cheers Bedok North","Address":"Blk 539 Bedok North St 3 #01-625   Singapore 460539","PostalCode":460539,"Xcoord":38237.4501,"Ycoord":34835.3263,"SingPoolsB":0,"Gp1Gp2Winn":23},"geometry":{"type":"Point","coordinates":[103.92530778351365,1.3313111123074264]}},{"type":"Feature","properties":{"Name":"Cheers Changi Village","Address":"Blk 4 Changi Village Rd #01-2074   Singapore 500004","PostalCode":500004,"Xcoord":45176.5747,"Ycoord":41200.1702,"SingPoolsB":0,"Gp1Gp2Winn":40},"geometry":{"type":"Point","coordinates":[103.98766322727171,1.388869148045445]}},{"type":"Feature","properties":{"Name":"Cheers Haig Rd","Address":"Blk 12 Haig Rd #01-333/335   Singapore 430012","PostalCode":430012,"Xcoord":34990.1749,"Ycoord":33098.4304,"SingPoolsB":0,"Gp1Gp2Winn":11},"geometry":{"type":"Point","coordinates":[103.89612882239965,1.3156041711245297]}},{"type":"Feature","properties":{"Name":"Cheers Hougang Ave 3","Address":"Blk 23 Hougang Ave 3 #01-281   Singapore 530023","PostalCode":530023,"Xcoord":34389.2322,"Ycoord":38544.7888,"SingPoolsB":0,"Gp1Gp2Winn":5},"geometry":{"type":"Point","coordinates":[103.89073019803092,1.364859209494654]}},{"type":"Feature","properties":{"Name":"Cheers New Upper Changi Road","Address":"Blk 59 New Upp Changi Rd #01-1272   Singapore 461059","PostalCode":461059,"Xcoord":39949.9935,"Ycoord":34033.4912,"SingPoolsB":0,"Gp1Gp2Winn":16},"geometry":{"type":"Point","coordinates":[103.9406956123738,1.3240589863687735]}},{"type":"Feature","properties":{"Name":"Cheers Woodlands Centre","Address":"Blk 5A Woodlands Centre Rd #02-182A   Singapore 731005","PostalCode":731005,"Xcoord":20915.2432,"Ycoord":47010.7178,"SingPoolsB":0,"Gp1Gp2Winn":36},"geometry":{"type":"Point","coordinates":[103.7696551278341,1.4414218195674506]}},{"type":"Feature","properties":{"Name":"Cheng Chew Wah Agency","Address":"20 Frankel Terrace   Singapore 458022","PostalCode":458022,"Xcoord":37034.2591,"Ycoord":33482.7874,"SingPoolsB":0,"Gp1Gp2Winn":19},"geometry":{"type":"Point","coordinates":[103.91449605028508,1.3190796233561615]}},{"type":"Feature","properties":{"Name":"Cheng Tai Boon Beng","Address":"5 Koek Rd Cuppage Plaza #B1-22   Singapore 228796","PostalCode":228796,"Xcoord":28824.4161,"Ycoord":31594.3555,"SingPoolsB":0,"Gp1Gp2Winn":17},"geometry":{"type":"Point","coordinates":[103.84072633479039,1.3020026323578715]}},{"type":"Feature","properties":{"Name":"Chng Siow Eng Agency","Address":"Blk 625 Elias Rd Elias Mall #01-316   Singapore 510625","PostalCode":510625,"Xcoord":40093.6764,"Ycoord":40061.0868,"SingPoolsB":0,"Gp1Gp2Winn":26},"geometry":{"type":"Point","coordinates":[103.9419891001397,1.378570261430376]}},{"type":"Feature","properties":{"Name":"Choice Decor Bedok North","Address":"Blk 416 Bedok North Ave 2 #01-31   Singapore 460416","PostalCode":460416,"Xcoord":38835.6096,"Ycoord":34513.4358,"SingPoolsB":0,"Gp1Gp2Winn":12},"geometry":{"type":"Point","coordinates":[103.93068246144053,1.3283998452016816]}},{"type":"Feature","properties":{"Name":"Choice Decor Co-Operative Society Ltd","Address":"Blk 22 Sin Ming Rd #01-232   Singapore 570022","PostalCode":570022,"Xcoord":28651.5258,"Ycoord":37671.9592,"SingPoolsB":0,"Gp1Gp2Winn":21},"geometry":{"type":"Point","coordinates":[103.83917296554527,1.3569663318156062]}},{"type":"Feature","properties":{"Name":"Chong Hoe Tong","Address":"Blk 21 Lor 7 Toa Payoh #01-290   Singapore 310021","PostalCode":310021,"Xcoord":30696.7463,"Ycoord":35268.9468,"SingPoolsB":0,"Gp1Gp2Winn":23},"geometry":{"type":"Point","coordinates":[103.85755039814846,1.335234228637001]}},{"type":"Feature","properties":{"Name":"Chop Yeo Thong Heng","Address":"Blk 83 MacPherson Lane #01-249   Singapore 360083","PostalCode":360083,"Xcoord":33810.2233,"Ycoord":34861.7614,"SingPoolsB":0,"Gp1Gp2Winn":12},"geometry":{"type":"Point","coordinates":[103.88552669943849,1.3315513522186548]}},{"type":"Feature","properties":{"Name":"Chua Hong Kim Trading","Address":"Blk 237 Serangoon Ave 3 #01-106   Singapore 550237","PostalCode":550237,"Xcoord":32079.7453,"Ycoord":37306.6007,"SingPoolsB":0,"Gp1Gp2Winn":31},"geometry":{"type":"Point","coordinates":[103.86997771426041,1.3536618880999598]}},{"type":"Feature","properties":{"Name":"Chua Seng Dept Store","Address":"343 Bedok Rd   Singapore 469526","PostalCode":469526,"Xcoord":40681.4305,"Ycoord":34831.141,"SingPoolsB":0,"Gp1Gp2Winn":30},"geometry":{"type":"Point","coordinates":[103.94726828373811,1.3312723392659758]}},{"type":"Feature","properties":{"Name":"Chua Yan Kee","Address":"Blk 49 Tanglin Halt Rd #01-349   Singapore 142049","PostalCode":142049,"Xcoord":23998.068,"Ycoord":31420.1743,"SingPoolsB":0,"Gp1Gp2Winn":21},"geometry":{"type":"Point","coordinates":[103.7973594151225,1.3004271518549833]}},{"type":"Feature","properties":{"Name":"Chuan Hao Dept Store","Address":"Blk 19A Dover Crescent #01-04   Singapore 131019","PostalCode":131019,"Xcoord":22572.4605,"Ycoord":32186.0831,"SingPoolsB":0,"Gp1Gp2Winn":12},"geometry":{"type":"Point","coordinates":[103.78454955808316,1.3073535423022469]}},{"type":"Feature","properties":{"Name":"Chwee Huat Trading","Address":"Blk 74 Whampoa Dr #01-322   Singapore 320074","PostalCode":320074,"Xcoord":30721.1411,"Ycoord":34104.7757,"SingPoolsB":0,"Gp1Gp2Winn":7},"geometry":{"type":"Point","coordinates":[103.85776949591647,1.3247058762835882]}},{"type":"Feature","properties":{"Name":"Clifford Gift Shop","Address":"Blk 532 Ang Mo Kio Ave 10 #01-2459   Singapore 560532","PostalCode":560532,"Xcoord":30367.2897,"Ycoord":39534.6825,"SingPoolsB":0,"Gp1Gp2Winn":42},"geometry":{"type":"Point","coordinates":[103.85459037709816,1.3738120486783032]}},{"type":"Feature","properties":{"Name":"Cold Storage Compass Point","Address":"1 Seng Kang Square #B1-38 Compass Point Shopping Centre   Singapore 545078","PostalCode":545078,"Xcoord":34871.4423,"Ycoord":41551.898,"SingPoolsB":0,"Gp1Gp2Winn":21},"geometry":{"type":"Point","coordinates":[103.89506388413936,1.3920543053263987]}},{"type":"Feature","properties":{"Name":"Cold Storage Northpoint","Address":"930 Yishun Ave 2 #B1-09/12 Northpoint Shopping Centre   Singapore 769098","PostalCode":769098,"Xcoord":28274.4944,"Ycoord":45714.2878,"SingPoolsB":0,"Gp1Gp2Winn":15},"geometry":{"type":"Point","coordinates":[103.83578516631403,1.4296982707706771]}},{"type":"Feature","properties":{"Name":"Cold Storage Parkway Parade","Address":"80 Marine Parade Rd Parkway Parade #B1-84   Singapore 449269","PostalCode":449269,"Xcoord":36008.8613,"Ycoord":31492.4522,"SingPoolsB":0,"Gp1Gp2Winn":16},"geometry":{"type":"Point","coordinates":[103.90528181464609,1.3010800333214194]}},{"type":"Feature","properties":{"Name":"Cold Storage UE Square","Address":"81 Clemenceau Ave UE Square #02-18   Singapore 239917","PostalCode":239917,"Xcoord":29033.107,"Ycoord":30506.5241,"SingPoolsB":0,"Gp1Gp2Winn":6},"geometry":{"type":"Point","coordinates":[103.84260148213308,1.2921646617294977]}},{"type":"Feature","properties":{"Name":"Dawn Florist","Address":"21 Hougang St 51 Hougang Green Shopping Mall #01-04A   Singapore 538719","PostalCode":538719,"Xcoord":34068.3399,"Ycoord":40143.5433,"SingPoolsB":0,"Gp1Gp2Winn":25},"geometry":{"type":"Point","coordinates":[103.88784708953455,1.3793178348764934]}},{"type":"Feature","properties":{"Name":"Delisia Agency Pte Ltd","Address":"149 Rochor Rd Fu Lu Shou Complex #B1-26   Singapore 188425","PostalCode":188425,"Xcoord":30356.7647,"Ycoord":31533.5879,"SingPoolsB":0,"Gp1Gp2Winn":52},"geometry":{"type":"Point","coordinates":[103.8544951825373,1.3014529931514742]}},{"type":"Feature","properties":{"Name":"Everbright Services","Address":"Blk 108 Depot Rd #01-17   Singapore 100108","PostalCode":100108,"Xcoord":25438.018,"Ycoord":29268.3328,"SingPoolsB":0,"Gp1Gp2Winn":15},"geometry":{"type":"Point","coordinates":[103.81029818956462,1.2809668070580151]}},{"type":"Feature","properties":{"Name":"Evercool Engineering","Address":"Blk 95 Lor 4 Toa Payoh #01-50   Singapore 310095","PostalCode":310095,"Xcoord":29743.3642,"Ycoord":35672.4394,"SingPoolsB":0,"Gp1Gp2Winn":23},"geometry":{"type":"Point","coordinates":[103.8489837341078,1.3388833423648485]}},{"type":"Feature","properties":{"Name":"Everstream Trading","Address":"Blk 283 Bukit Batok East Ave 3 #01-281   Singapore 650283","PostalCode":650283,"Xcoord":19546.6591,"Ycoord":36598.1846,"SingPoolsB":0,"Gp1Gp2Winn":29},"geometry":{"type":"Point","coordinates":[103.75736009040509,1.3472543115371376]}},{"type":"Feature","properties":{"Name":"FairPrice Xpress MacPherson","Address":"114 MacPherson Rd, Exxon-Mobil   Singapore 348504","PostalCode":348504,"Xcoord":32369.5881,"Ycoord":34565.2352,"SingPoolsB":0,"Gp1Gp2Winn":14},"geometry":{"type":"Point","coordinates":[103.87258174285647,1.3288699165137554]}},{"type":"Feature","properties":{"Name":"FairPrice Xtra Jurong Point 2","Address":"63 Jurong West Central 3 #03-01 Jurong Point Shopping Centre   Singapore 648331","PostalCode":648331,"Xcoord":13760.4279,"Ycoord":35730.3626,"SingPoolsB":0,"Gp1Gp2Winn":27},"geometry":{"type":"Point","coordinates":[103.70536770733082,1.3394038676272768]}},{"type":"Feature","properties":{"Name":"Fatt Chye Heng Trading","Address":"Blk 7 Hougang Ave 3 #01-48   Singapore 530007","PostalCode":530007,"Xcoord":34698.3382,"Ycoord":38265.1783,"SingPoolsB":0,"Gp1Gp2Winn":41},"geometry":{"type":"Point","coordinates":[103.89350766295671,1.3623304449453588]}},{"type":"Feature","properties":{"Name":"Feng Yuen Agency Enterprise","Address":"150 South Bridge Rd Fook Hai Building #B1-26   Singapore 058727","PostalCode":58727,"Xcoord":29459.4705,"Ycoord":29711.7445,"SingPoolsB":0,"Gp1Gp2Winn":29},"geometry":{"type":"Point","coordinates":[103.84643250153785,1.2849769373340012]}},{"type":"Feature","properties":{"Name":"Gerk Chwee Trading","Address":"4 Kensington Park Rd   Singapore 557256","PostalCode":557256,"Xcoord":31639.6982,"Ycoord":38526.2932,"SingPoolsB":0,"Gp1Gp2Winn":31},"geometry":{"type":"Point","coordinates":[103.86602375683852,1.3646924075402862]}},{"type":"Feature","properties":{"Name":"Geylang United Football Club","Address":"1 Bedok North Street 2, Bedok Stadium Gate 3,   Singapore 469642","PostalCode":469642,"Xcoord":39745.476,"Ycoord":34253.3223,"SingPoolsB":0,"Gp1Gp2Winn":15},"geometry":{"type":"Point","coordinates":[103.93885800034025,1.326047137067594]}},{"type":"Feature","properties":{"Name":"Giant Pioneer Mall","Address":"Blk 638 Jurong West St 61 Pioneer Mall #03-01   Singapore 640638","PostalCode":640638,"Xcoord":12849.468,"Ycoord":35982.1285,"SingPoolsB":0,"Gp1Gp2Winn":20},"geometry":{"type":"Point","coordinates":[103.6971820898879,1.341680298746453]}},{"type":"Feature","properties":{"Name":"Giant Sembawang Shopping Centre","Address":"604 Sembawang Road Sembawang Shopping Centre #B1-25   Singapore 758459","PostalCode":758459,"Xcoord":27055.6218,"Ycoord":47058.3262,"SingPoolsB":0,"Gp1Gp2Winn":4},"geometry":{"type":"Point","coordinates":[103.82483241573203,1.4418532525372794]}},{"type":"Feature","properties":{"Name":"Giant Sunshine Place","Address":"475 Choa Chu Kang Ave 3 Sunshine Place #01-01/10   Singapore 680475","PostalCode":680475,"Xcoord":17505.2382,"Ycoord":39986.6034,"SingPoolsB":0,"Gp1Gp2Winn":14},"geometry":{"type":"Point","coordinates":[103.73901548613115,1.3778972760590982]}},{"type":"Feature","properties":{"Name":"GIANT - JUNCTION 10","Address":"1, WOODLANDS ROAD, #02-01, JUNCTION 10   Singapore 677899","PostalCode":677899,"Xcoord":19845.1921,"Ycoord":40285.9415,"SingPoolsB":0,"Gp1Gp2Winn":0},"geometry":{"type":"Point","coordinates":[103.76004158332215,1.3806051247911564]}},{"type":"Feature","properties":{"Name":"Goh Geok Kwee Agency","Address":"Blk 61 Telok Blangah Heights #01-107   Singapore 100061","PostalCode":100061,"Xcoord":25627.9827,"Ycoord":28686.7019,"SingPoolsB":0,"Gp1Gp2Winn":14},"geometry":{"type":"Point","coordinates":[103.81200513848857,1.2757067562534168]}},{"type":"Feature","properties":{"Name":"Golden Lagoon Trading","Address":"Blk 136 Marsiling Road #01-2182   Singapore 730136","PostalCode":730136,"Xcoord":21807.4199,"Ycoord":46708.0062,"SingPoolsB":0,"Gp1Gp2Winn":7},"geometry":{"type":"Point","coordinates":[103.7776722694253,1.4386844182880292]}},{"type":"Feature","properties":{"Name":"Hin Teck Leong Trading Co","Address":"Blk 640 Rowell Rd #01-68   Singapore 200640","PostalCode":200640,"Xcoord":30400.6348,"Ycoord":32181.8171,"SingPoolsB":0,"Gp1Gp2Winn":17},"geometry":{"type":"Point","coordinates":[103.85488942521519,1.3073153458959437]}},{"type":"Feature","properties":{"Name":"Hock Soon Ann","Address":"Block 73 Bedok South Ave 3 #01-454   Singapore 460073","PostalCode":460073,"Xcoord":40314.5635,"Ycoord":33566.7556,"SingPoolsB":0,"Gp1Gp2Winn":6},"geometry":{"type":"Point","coordinates":[103.943971276424,1.3198378576100744]}},{"type":"Feature","properties":{"Name":"Hougang United Football Club","Address":"100 Hougang Ave 2 Hougang Stadium   Singapore 538856","PostalCode":538856,"Xcoord":33858.3798,"Ycoord":39057.6323,"SingPoolsB":0,"Gp1Gp2Winn":16},"geometry":{"type":"Point","coordinates":[103.88596022871353,1.3694972908843208]}},{"type":"Feature","properties":{"Name":"Jake Merchandise Associates","Address":"Blk 503 Tampines Central 1 #01-283   Singapore 520503","PostalCode":520503,"Xcoord":40440.9928,"Ycoord":37543.9126,"SingPoolsB":0,"Gp1Gp2Winn":32},"geometry":{"type":"Point","coordinates":[103.94510893508166,1.3558057346651284]}},{"type":"Feature","properties":{"Name":"Keppel Credit Union Co-operative Ltd","Address":"Blk 1 Jln Bukit Merah #01-4536   Singapore 150001","PostalCode":150001,"Xcoord":25210.7047,"Ycoord":29878.8603,"SingPoolsB":0,"Gp1Gp2Winn":10},"geometry":{"type":"Point","coordinates":[103.80825563881368,1.286488183761162]}},{"type":"Feature","properties":{"Name":"Kiamly Trading","Address":"Blk 211 Serangoon Ave 4 #01-06   Singapore 550211","PostalCode":550211,"Xcoord":32456.8199,"Ycoord":37601.9384,"SingPoolsB":0,"Gp1Gp2Winn":5},"geometry":{"type":"Point","coordinates":[103.87336601536646,1.3563327625540267]}},{"type":"Feature","properties":{"Name":"Kim Chwee Trading","Address":"Blk 256 Jurong East St 24 #01-385   Singapore 600256","PostalCode":600256,"Xcoord":17426.2066,"Ycoord":36259.4815,"SingPoolsB":0,"Gp1Gp2Winn":41},"geometry":{"type":"Point","coordinates":[103.73830664953603,1.3441905324638277]}},{"type":"Feature","properties":{"Name":"Kis Store","Address":"18 Cross Street Marsh & McLennan Centre #B1-01   Singapore 048423","PostalCode":48423,"Xcoord":29509.1524,"Ycoord":29550.1153,"SingPoolsB":0,"Gp1Gp2Winn":47},"geometry":{"type":"Point","coordinates":[103.84687890544232,1.2835152172545423]}},{"type":"Feature","properties":{"Name":"Kwek Lee Eng Agency","Address":"200 Jln Sultan Textile Centre #01-29   Singapore 199018","PostalCode":199018,"Xcoord":31126.6432,"Ycoord":31773.6942,"SingPoolsB":0,"Gp1Gp2Winn":30},"geometry":{"type":"Point","coordinates":[103.86141291475379,1.3036243617579746]}},{"type":"Feature","properties":{"Name":"Laura's Gifts","Address":"Blk 442 Pasir Ris Dr 6 #01-42   Singapore 510442","PostalCode":510442,"Xcoord":41870.1758,"Ycoord":38995.5201,"SingPoolsB":0,"Gp1Gp2Winn":28},"geometry":{"type":"Point","coordinates":[103.95795172263709,1.368932893161756]}},{"type":"Feature","properties":{"Name":"Lee Ah Lan Trading","Address":"Blk 61 Teban Gardens Road #01-05 Teban Place   Singapore 600061","PostalCode":600061,"Xcoord":17454.5371,"Ycoord":33837.1368,"SingPoolsB":0,"Gp1Gp2Winn":14},"geometry":{"type":"Point","coordinates":[103.73856205366978,1.3222837455854588]}},{"type":"Feature","properties":{"Name":"Lee Eng Trading Store","Address":"Blk 201B Tampines St 21 #01-1083   Singapore 522201","PostalCode":522201,"Xcoord":41321.8271,"Ycoord":37281.8605,"SingPoolsB":0,"Gp1Gp2Winn":44},"geometry":{"type":"Point","coordinates":[103.95302367271475,1.353435453243797]}},{"type":"Feature","properties":{"Name":"Lee Wah TV & Electric Co","Address":"623 Geylang Rd   Singapore 389561","PostalCode":389561,"Xcoord":34021.2147,"Ycoord":32955.7838,"SingPoolsB":0,"Gp1Gp2Winn":32},"geometry":{"type":"Point","coordinates":[103.88742220186862,1.314314331433909]}},{"type":"Feature","properties":{"Name":"Li Thoe Trading","Address":"Blk 119 Aljunied Ave 2 #01-78   Singapore 380119","PostalCode":380119,"Xcoord":33900.2612,"Ycoord":33496.3928,"SingPoolsB":0,"Gp1Gp2Winn":44},"geometry":{"type":"Point","coordinates":[103.88633547781151,1.3192034296366464]}},{"type":"Feature","properties":{"Name":"Lim Heng Ee","Address":"Blk 16 Upp Boon Keng Rd #01-1113   Singapore 380016","PostalCode":380016,"Xcoord":32265.5417,"Ycoord":33081.6282,"SingPoolsB":0,"Gp1Gp2Winn":18},"geometry":{"type":"Point","coordinates":[103.87164662290616,1.3154527171691794]}},{"type":"Feature","properties":{"Name":"Lucky Hill","Address":"Blk 112 Bukit Purmei Rd #01-209   Singapore 090112","PostalCode":90112,"Xcoord":27171.9347,"Ycoord":28549.9153,"SingPoolsB":0,"Gp1Gp2Winn":16},"geometry":{"type":"Point","coordinates":[103.825878113929,1.2744697842395525]}},{"type":"Feature","properties":{"Name":"Mee Lee Cheong Pte Ltd","Address":"Blk 139 Tampines St 11 #01-32   Singapore 521139","PostalCode":521139,"Xcoord":40349.3055,"Ycoord":36468.125,"SingPoolsB":0,"Gp1Gp2Winn":40},"geometry":{"type":"Point","coordinates":[103.94428462518412,1.34607675077364]}},{"type":"Feature","properties":{"Name":"Metro Woodlands","Address":"1 Woodlands Square Causeway Point #01-18/19   Singapore 738099","PostalCode":738099,"Xcoord":22735.2727,"Ycoord":46421.3332,"SingPoolsB":0,"Gp1Gp2Winn":20},"geometry":{"type":"Point","coordinates":[103.7860099736418,1.4360920417869245]}},{"type":"Feature","properties":{"Name":"Nalayanee Trading Enterprise","Address":"127 Upp Paya Lebar Rd   Singapore 534839","PostalCode":534839,"Xcoord":33910.9429,"Ycoord":35623.1611,"SingPoolsB":0,"Gp1Gp2Winn":23},"geometry":{"type":"Point","coordinates":[103.88643186908628,1.338437158746519]}},{"type":"Feature","properties":{"Name":"Nan Huat Wine Store","Address":"Blk 513 Bishan St 13 #01-508   Singapore 570513","PostalCode":570513,"Xcoord":29806.152,"Ycoord":36824.5467,"SingPoolsB":0,"Gp1Gp2Winn":40},"geometry":{"type":"Point","coordinates":[103.84954798821285,1.3493025874520905]}},{"type":"Feature","properties":{"Name":"Nel's Store","Address":"Blk 741 Bedok Reservoir Rd #01-3073   Singapore 470741","PostalCode":470741,"Xcoord":37900.3067,"Ycoord":35546.631,"SingPoolsB":0,"Gp1Gp2Winn":27},"geometry":{"type":"Point","coordinates":[103.92227859542095,1.3377440039049473]}},{"type":"Feature","properties":{"Name":"Ng Teo Guan Self Service","Address":"Blk 301 Ubi Ave 1 #01-251   Singapore 400301","PostalCode":400301,"Xcoord":35638.2033,"Ycoord":34763.9036,"SingPoolsB":0,"Gp1Gp2Winn":48},"geometry":{"type":"Point","coordinates":[103.9019520952282,1.330665956566068]}},{"type":"Feature","properties":{"Name":"NTUC FP Yew Tee","Address":"21, 23 & 25 Choa Chu Kang North 6 #B1-01 to 07 Yew Tee Point   Singapore 689715","PostalCode":689715,"Xcoord":18441.9934,"Ycoord":42149.6352,"SingPoolsB":0,"Gp1Gp2Winn":38},"geometry":{"type":"Point","coordinates":[103.74662989019758,1.3970942935835995]}},{"type":"Feature","properties":{"Name":"NTUC FP - CHEERS HARBOURFRONT","Address":"1 Maritime Square Harbourfront Centre #01-82   Singapore 099253","PostalCode":99253,"Xcoord":26543.1578,"Ycoord":27418.588,"SingPoolsB":0,"Gp1Gp2Winn":32},"geometry":{"type":"Point","coordinates":[103.82022837823786,1.2642384334477252]}},{"type":"Feature","properties":{"Name":"NTUC FP Ang Mo Kio Hypermarket","Address":"53 Ang Mo Kio Ave 3 Ang Mo Kio Hub #B2-26   Singapore 569933","PostalCode":569933,"Xcoord":29679.5749,"Ycoord":39022.9506,"SingPoolsB":0,"Gp1Gp2Winn":32},"geometry":{"type":"Point","coordinates":[103.84841073686435,1.3691841756348135]}},{"type":"Feature","properties":{"Name":"NTUC FP Bedok North St 1","Address":"Blk 212 Bedok North St 1 #01-147   Singapore 460212","PostalCode":460212,"Xcoord":38941.5901,"Ycoord":34239.5852,"SingPoolsB":0,"Gp1Gp2Winn":37},"geometry":{"type":"Point","coordinates":[103.93163465551585,1.3259232030358774]}},{"type":"Feature","properties":{"Name":"NTUC FP Bedok North St 4","Address":"Blk 89 Bedok North St 4 #01-77/79   Singapore 460089","PostalCode":460089,"Xcoord":39674.5364,"Ycoord":35017.3597,"SingPoolsB":0,"Gp1Gp2Winn":29},"geometry":{"type":"Point","coordinates":[103.93822086218599,1.332956836359617]}},{"type":"Feature","properties":{"Name":"NTUC FP Bishan St 13","Address":"Blk 510 Bishan St 13 #01-520   Singapore 570510","PostalCode":570510,"Xcoord":29822.2048,"Ycoord":36778.7573,"SingPoolsB":0,"Gp1Gp2Winn":26},"geometry":{"type":"Point","coordinates":[103.84969222992599,1.3488884834450179]}},{"type":"Feature","properties":{"Name":"NTUC FP Boon Lay","Address":"Blk 221 Boon Lay Place Boon Lay Shopping Complex #02-200   Singapore 640221","PostalCode":640221,"Xcoord":14551.1907,"Ycoord":36501.0197,"SingPoolsB":0,"Gp1Gp2Winn":35},"geometry":{"type":"Point","coordinates":[103.71247281965975,1.346373764142824]}},{"type":"Feature","properties":{"Name":"NTUC FP Bukit Batok MRT Station","Address":"10 Bukit Batok Central Bukit Batok MRT Station #01-08   Singapore 659958","PostalCode":659958,"Xcoord":18678.1364,"Ycoord":36790.3619,"SingPoolsB":0,"Gp1Gp2Winn":22},"geometry":{"type":"Point","coordinates":[103.74955582350574,1.3489920353944835]}},{"type":"Feature","properties":{"Name":"NTUC FP Bukit Merah","Address":"Blk 166 Bukit Merah Central #01-3527   Singapore 150166","PostalCode":150166,"Xcoord":26260.6352,"Ycoord":29509.8354,"SingPoolsB":0,"Gp1Gp2Winn":30},"geometry":{"type":"Point","coordinates":[103.81768970676767,1.2831509279334883]}},{"type":"Feature","properties":{"Name":"NTUC FP Bukit Panjang Plaza","Address":"1 Jelebu Rd Bukit Panjang Plaza #02-11/12   Singapore 677743","PostalCode":677743,"Xcoord":20331.2909,"Ycoord":40209.7833,"SingPoolsB":0,"Gp1Gp2Winn":22},"geometry":{"type":"Point","coordinates":[103.76440955910165,1.379916509242631]}},{"type":"Feature","properties":{"Name":"NTUC FP Bukit Timah Plaza","Address":"1 Jln Anak Bukit Bukit Timah Plaza #B1-01   Singapore 588996","PostalCode":588996,"Xcoord":21908.7846,"Ycoord":35644.6712,"SingPoolsB":0,"Gp1Gp2Winn":21},"geometry":{"type":"Point","coordinates":[103.77858543091345,1.338631651877693]}},{"type":"Feature","properties":{"Name":"NTUC FP Century Square","Address":"NTUC FP Century Square, 2 Tampines Central 5 #B1-07/08/17   Singapore 529509","PostalCode":529509,"Xcoord":40293.6502,"Ycoord":37163.0185,"SingPoolsB":0,"Gp1Gp2Winn":1},"geometry":{"type":"Point","coordinates":[103.9437848123973,1.3523611315879653]}},{"type":"Feature","properties":{"Name":"NTUC FP Changi Business Park Hypermarket","Address":"8 Changi Business Park Ave 1 #01-51 & #02-51   Singapore 486018","PostalCode":486018,"Xcoord":42530.892,"Ycoord":35224.3507,"SingPoolsB":0,"Gp1Gp2Winn":0},"geometry":{"type":"Point","coordinates":[103.96388688389459,1.3348275500690496]}},{"type":"Feature","properties":{"Name":"NTUC FP Clementi Ave 2","Address":"Blk 352 Clementi Ave 2 #01-141/143   Singapore 120352","PostalCode":120352,"Xcoord":21104.6993,"Ycoord":32951.1963,"SingPoolsB":0,"Gp1Gp2Winn":34},"geometry":{"type":"Point","coordinates":[103.77136086087113,1.3142726593961669]}},{"type":"Feature","properties":{"Name":"NTUC FP Clementi Ave 3","Address":"Blk 451 Clementi Ave 3 #01-307   Singapore 120451","PostalCode":120451,"Xcoord":20472.4998,"Ycoord":32771.5755,"SingPoolsB":0,"Gp1Gp2Winn":25},"geometry":{"type":"Point","coordinates":[103.76568027906059,1.3126480850765256]}},{"type":"Feature","properties":{"Name":"NTUC FP Coronation","Address":"587 Bukit Timah Rd Coronation Shopping Plaza #01-01   Singapore 269707","PostalCode":269707,"Xcoord":25405.102,"Ycoord":34008.3337,"SingPoolsB":0,"Gp1Gp2Winn":23},"geometry":{"type":"Point","coordinates":[103.81000203251158,1.323833699739386]}},{"type":"Feature","properties":{"Name":"NTUC FP Dawson","Address":"Blk 57 Dawson Road #01-07 Dawson Place   Singapore 142057","PostalCode":142057,"Xcoord":25513.0007,"Ycoord":30566.0075,"SingPoolsB":0,"Gp1Gp2Winn":8},"geometry":{"type":"Point","coordinates":[103.8109718356167,1.2927025266268029]}},{"type":"Feature","properties":{"Name":"NTUC FP Downtown East","Address":"1 Pasir Ris Close #E02-03 E ! Hub   Singapore 519599","PostalCode":519599,"Xcoord":41461.717,"Ycoord":39953.7992,"SingPoolsB":0,"Gp1Gp2Winn":8},"geometry":{"type":"Point","coordinates":[103.95428187839107,1.3775993965402111]}},{"type":"Feature","properties":{"Name":"NTUC FP Eastpoint Mall","Address":"3 Simei St 6 Eastpoint Mall #B1-04   Singapore 528833","PostalCode":528833,"Xcoord":41379.6935,"Ycoord":36078.0185,"SingPoolsB":0,"Gp1Gp2Winn":32},"geometry":{"type":"Point","coordinates":[103.95354310447485,1.3425483323912581]}},{"type":"Feature","properties":{"Name":"NTUC FP Havelock Rd","Address":"Blk 50 Havelock Rd #01-755   Singapore 160050","PostalCode":160050,"Xcoord":27274.8621,"Ycoord":30241.1538,"SingPoolsB":0,"Gp1Gp2Winn":16},"geometry":{"type":"Point","coordinates":[103.82680291498939,1.2897647545499837]}},{"type":"Feature","properties":{"Name":"NTUC FP Hougang Mall","Address":"90 Hougang Ave 10 NTUC Hougang Mall #B1-07   Singapore 538766","PostalCode":538766,"Xcoord":34729.5239,"Ycoord":39387.8072,"SingPoolsB":0,"Gp1Gp2Winn":32},"geometry":{"type":"Point","coordinates":[103.89378814138632,1.372483087252553]}},{"type":"Feature","properties":{"Name":"NTUC FP Hougang Point","Address":"1 Hougang St 91 Hougang Point Central Place #02- 01   Singapore 538692","PostalCode":538692,"Xcoord":33133.8846,"Ycoord":39739.864,"SingPoolsB":0,"Gp1Gp2Winn":24},"geometry":{"type":"Point","coordinates":[103.87945025109717,1.3756672835183172]}},{"type":"Feature","properties":{"Name":"NTUC FP Hougang St 21","Address":"Blk 202 Hougang St 21 #01-00   Singapore 530202","PostalCode":530202,"Xcoord":33644.5379,"Ycoord":37739.3856,"SingPoolsB":0,"Gp1Gp2Winn":19},"geometry":{"type":"Point","coordinates":[103.88403846038055,1.3575755842641457]}},{"type":"Feature","properties":{"Name":"NTUC FP Jurong East","Address":"Blk 135 Jurong East St 13 #01-337   Singapore 600135","PostalCode":600135,"Xcoord":17580.2089,"Ycoord":35109.9036,"SingPoolsB":0,"Gp1Gp2Winn":55},"geometry":{"type":"Point","coordinates":[103.73969084660663,1.3337942255980242]}},{"type":"Feature","properties":{"Name":"NTUC FP Jurong Point","Address":"1 Jurong West Central 2 Jurong Point #B1-09   Singapore 648886","PostalCode":648886,"Xcoord":13907.0305,"Ycoord":35735.6777,"SingPoolsB":0,"Gp1Gp2Winn":32},"geometry":{"type":"Point","coordinates":[103.70668501267232,1.3394520042468772]}},{"type":"Feature","properties":{"Name":"NTUC FP Kallang Bahru","Address":"Blk 71 Kallang Bahru #01-529   Singapore 330071","PostalCode":330071,"Xcoord":32125.682,"Ycoord":33694.2359,"SingPoolsB":0,"Gp1Gp2Winn":26},"geometry":{"type":"Point","coordinates":[103.8703899950364,1.320992942710565]}},{"type":"Feature","properties":{"Name":"NTUC FP Killiney Rd","Address":"131 Killiney Rd CGH Building #01-01/02/03   Singapore 239571","PostalCode":239571,"Xcoord":28580.4218,"Ycoord":31071.6324,"SingPoolsB":0,"Gp1Gp2Winn":13},"geometry":{"type":"Point","coordinates":[103.83853392478963,1.2972753141418334]}},{"type":"Feature","properties":{"Name":"NTUC FP Limbang Shopping Centre","Address":"Blk 533 Choa Chu Kang St 51 Limbang Shopping Centre #01-11   Singapore 680533","PostalCode":680533,"Xcoord":17959.8064,"Ycoord":41554.1654,"SingPoolsB":0,"Gp1Gp2Winn":21},"geometry":{"type":"Point","coordinates":[103.74309957344785,1.3920738866636537]}},{"type":"Feature","properties":{"Name":"NTUC FP Lot 1 Shoppers Mall","Address":"21 Choa Chu Kang Ave 4 Lot 1 Shoppers Mall #B1-05   Singapore 689812","PostalCode":689812,"Xcoord":18175.6458,"Ycoord":40767.4553,"SingPoolsB":0,"Gp1Gp2Winn":19},"geometry":{"type":"Point","coordinates":[103.74503932196369,1.3849592449810053]}},{"type":"Feature","properties":{"Name":"NTUC FP Marine Parade","Address":"6 Marine Parade Central   Singapore 449411","PostalCode":449411,"Xcoord":36219.8016,"Ycoord":31520.9238,"SingPoolsB":0,"Gp1Gp2Winn":41},"geometry":{"type":"Point","coordinates":[103.90717721494195,1.3013374651229863]}},{"type":"Feature","properties":{"Name":"NTUC FP Marsiling MRT Station","Address":"71 Woodlands Ave 3 Marsiling MRT Station #01-01   Singapore 739044","PostalCode":739044,"Xcoord":21399.2012,"Ycoord":46039.0807,"SingPoolsB":0,"Gp1Gp2Winn":13},"geometry":{"type":"Point","coordinates":[103.7740041876393,1.432634808626522]}},{"type":"Feature","properties":{"Name":"NTUC FP New Upper Changi","Address":"Blk 57 New Upp Changi Rd #01-1334/1338   Singapore 461057","PostalCode":461057,"Xcoord":40047.5131,"Ycoord":34054.8394,"SingPoolsB":0,"Gp1Gp2Winn":31},"geometry":{"type":"Point","coordinates":[103.94157188506047,1.3242520132489768]}},{"type":"Feature","properties":{"Name":"NTUC FP Pasir Ris White Sands","Address":"1 Pasir Ris Central St 3 White Sands #B1-10   Singapore 518457","PostalCode":518457,"Xcoord":40963.0807,"Ycoord":39392.0527,"SingPoolsB":0,"Gp1Gp2Winn":26},"geometry":{"type":"Point","coordinates":[103.94980102936667,1.3725193972166194]}},{"type":"Feature","properties":{"Name":"NTUC FP Punggol Plaza","Address":"Blk 168 Punggol Field Rd Punggol Plaza #03-01   Singapore 820168","PostalCode":820168,"Xcoord":36864.8676,"Ycoord":41787.4593,"SingPoolsB":0,"Gp1Gp2Winn":21},"geometry":{"type":"Point","coordinates":[103.91297643719007,1.3941840947888724]}},{"type":"Feature","properties":{"Name":"NTUC FP Rivervale Mall","Address":"11 Rivervale Crescent Rivervale Mall #03-01   Singapore 545082","PostalCode":545082,"Xcoord":35918.5613,"Ycoord":41569.9536,"SingPoolsB":0,"Gp1Gp2Winn":24},"geometry":{"type":"Point","coordinates":[103.90447307104165,1.392217326816649]}},{"type":"Feature","properties":{"Name":"NTUC FP Senja","Address":"Blk 628 Senja Rd Senja Grand #01-01   Singapore 670628","PostalCode":670628,"Xcoord":19864.8887,"Ycoord":40782.5221,"SingPoolsB":0,"Gp1Gp2Winn":8},"geometry":{"type":"Point","coordinates":[103.7602184343644,1.3850960237048793]}},{"type":"Feature","properties":{"Name":"NTUC FP Serangoon Central Hypermart","Address":"23 Serangoon Central #03-42 NEX   Singapore 556083","PostalCode":556083,"Xcoord":32408.2483,"Ycoord":36936.3121,"SingPoolsB":0,"Gp1Gp2Winn":12},"geometry":{"type":"Point","coordinates":[103.87292947027822,1.3503130838554378]}},{"type":"Feature","properties":{"Name":"NTUC FP Serangoon North","Address":"Blk 152B Serangoon North Ave 1 #01-384   Singapore 552152","PostalCode":552152,"Xcoord":32420.0488,"Ycoord":39091.012,"SingPoolsB":0,"Gp1Gp2Winn":27},"geometry":{"type":"Point","coordinates":[103.87303582363376,1.3697994153856852]}},{"type":"Feature","properties":{"Name":"NTUC FP Shaw Plaza","Address":"360 Balestier Rd Shaw Plaza #B1-01   Singapore 329783","PostalCode":329783,"Xcoord":30002.0624,"Ycoord":34120.897,"SingPoolsB":0,"Gp1Gp2Winn":20},"geometry":{"type":"Point","coordinates":[103.85130818821428,1.3248517272525064]}},{"type":"Feature","properties":{"Name":"NTUC FP Singapore Post Centre","Address":"10 Eunos Rd 8 Singapore Post Centre #B2-13   Singapore 408600","PostalCode":408600,"Xcoord":34857.8559,"Ycoord":33467.3275,"SingPoolsB":0,"Gp1Gp2Winn":10},"geometry":{"type":"Point","coordinates":[103.89493995192028,1.3189403740793766]}},{"type":"Feature","properties":{"Name":"NTUC FP Square 2","Address":"10 Sinaran Dr Square 2 #04-47/48/49   Singapore 307506","PostalCode":307506,"Xcoord":29208.7384,"Ycoord":33658.1633,"SingPoolsB":0,"Gp1Gp2Winn":25},"geometry":{"type":"Point","coordinates":[103.84417972667015,1.3206669691000352]}},{"type":"Feature","properties":{"Name":"NTUC FP Sun Plaza","Address":"30 Sembawang Dr Sun Plaza #B1-01/02   Singapore 757713","PostalCode":757713,"Xcoord":26491.5801,"Ycoord":47786.2434,"SingPoolsB":0,"Gp1Gp2Winn":40},"geometry":{"type":"Point","coordinates":[103.81976390989918,1.4484362465605156]}},{"type":"Feature","properties":{"Name":"NTUC FP Tampines Mall","Address":"4 Tampines Central 5 Tampines Mall #B1-12   Singapore 529510","PostalCode":529510,"Xcoord":40395.0798,"Ycoord":37187.2524,"SingPoolsB":0,"Gp1Gp2Winn":35},"geometry":{"type":"Point","coordinates":[103.94469623043416,1.3525802520340229]}},{"type":"Feature","properties":{"Name":"NTUC FP Tampines St 11","Address":"Blk 107 Tampines St 11 #01-353/359   Singapore 521107","PostalCode":521107,"Xcoord":40777.123,"Ycoord":36721.0987,"SingPoolsB":0,"Gp1Gp2Winn":23},"geometry":{"type":"Point","coordinates":[103.94812892848591,1.3483643713279454]}},{"type":"Feature","properties":{"Name":"NTUC FP Tampines St 44","Address":"Blk 475 Tampines St 44 #01-145   Singapore 520475","PostalCode":520475,"Xcoord":41333.1734,"Ycoord":38043.4883,"SingPoolsB":0,"Gp1Gp2Winn":23},"geometry":{"type":"Point","coordinates":[103.95312596511715,1.360323323591081]}},{"type":"Feature","properties":{"Name":"NTUC FP Tampines Street 83","Address":"Blk 866A #01-K1 Tampines St 83   Singapore 521866","PostalCode":521866,"Xcoord":39252.4771,"Ycoord":37498.2291,"SingPoolsB":0,"Gp1Gp2Winn":10},"geometry":{"type":"Point","coordinates":[103.9344293484508,1.3553930624455406]}},{"type":"Feature","properties":{"Name":"NTUC FP Tanjong Pagar","Address":"Blk 5 Tanjong Pagar Rd Tanjong Pagar Plaza #01-01   Singapore 081005","PostalCode":81005,"Xcoord":29078.0944,"Ycoord":28745.4452,"SingPoolsB":0,"Gp1Gp2Winn":48},"geometry":{"type":"Point","coordinates":[103.84300565305598,1.2762380807335676]}},{"type":"Feature","properties":{"Name":"NTUC FP Telok Blangah","Address":"Blk 78A Telok Blangah St 32 #01-01   Singapore 101078","PostalCode":101078,"Xcoord":25291.3676,"Ycoord":28429.5017,"SingPoolsB":0,"Gp1Gp2Winn":24},"geometry":{"type":"Point","coordinates":[103.80898055102136,1.2733807008993665]}},{"type":"Feature","properties":{"Name":"NTUC FP Thomson Plaza","Address":"301 Upp Thomson Rd Thomson Plaza #03-25/31   Singapore 574408","PostalCode":574408,"Xcoord":27735.8434,"Ycoord":37415.8517,"SingPoolsB":0,"Gp1Gp2Winn":24},"geometry":{"type":"Point","coordinates":[103.83094496083717,1.3546501926864132]}},{"type":"Feature","properties":{"Name":"NTUC FP Tiong Bahru Plaza","Address":"302 Tiong Bahru Rd Tiong Bahru Plaza #B1-01/02   Singapore 168732","PostalCode":168732,"Xcoord":27335.8219,"Ycoord":29839.2827,"SingPoolsB":0,"Gp1Gp2Winn":29},"geometry":{"type":"Point","coordinates":[103.82735067250722,1.2861303747974224]}},{"type":"Feature","properties":{"Name":"NTUC FP Toa Payoh","Address":"Blk 192 Lor 4 Toa Payoh #02-674   Singapore 310192","PostalCode":310192,"Xcoord":29910.2223,"Ycoord":34873.923,"SingPoolsB":0,"Gp1Gp2Winn":25},"geometry":{"type":"Point","coordinates":[103.85048300241574,1.331661833384801]}},{"type":"Feature","properties":{"Name":"NTUC FP Toa Payoh HDB Centre","Address":"Blk 500 Lor 6 Toa Payoh HDB Centre #01-33   Singapore 310500","PostalCode":310500,"Xcoord":29530.1904,"Ycoord":35023.4014,"SingPoolsB":0,"Gp1Gp2Winn":34},"geometry":{"type":"Point","coordinates":[103.84706820928608,1.3330136845582188]}},{"type":"Feature","properties":{"Name":"NTUC FP Woodgrove","Address":"30 Woodlands Ave 1 The Woodgrove #01-11   Singapore 739065","PostalCode":739065,"Xcoord":22191.2964,"Ycoord":45604.7795,"SingPoolsB":0,"Gp1Gp2Winn":16},"geometry":{"type":"Point","coordinates":[103.78112199530895,1.428707321691191]}},{"type":"Feature","properties":{"Name":"NTUC FP Woodlands Civic Centre","Address":"900 South Woodlands Dr Woodlands Civic Centre #B1-01   Singapore 730900","PostalCode":730900,"Xcoord":22837.3812,"Ycoord":46304.6811,"SingPoolsB":0,"Gp1Gp2Winn":20},"geometry":{"type":"Point","coordinates":[103.78692753713514,1.435037101727026]}},{"type":"Feature","properties":{"Name":"NTUC FP Yishun","Address":"301 Yishun Ave 2 Yishun MRT Station #01-02   Singapore 769093","PostalCode":769093,"Xcoord":28184.2393,"Ycoord":45658.9769,"SingPoolsB":0,"Gp1Gp2Winn":35},"geometry":{"type":"Point","coordinates":[103.83497413981154,1.4291980597269374]}},{"type":"Feature","properties":{"Name":"NTUC FP Yishun Ring Rd","Address":"Blk 849 Yishun Ring Rd #01-3701/3703   Singapore 760849","PostalCode":760849,"Xcoord":28230.3353,"Ycoord":44299.2991,"SingPoolsB":0,"Gp1Gp2Winn":31},"geometry":{"type":"Point","coordinates":[103.83538834433817,1.4169016245439512]}},{"type":"Feature","properties":{"Name":"NTUC FP Yung Kuang","Address":"Blk 63-66 Yung Kuang Rd #01-119/02-119   Singapore 610063","PostalCode":610063,"Xcoord":15661.7921,"Ycoord":34918.1532,"SingPoolsB":0,"Gp1Gp2Winn":30},"geometry":{"type":"Point","coordinates":[103.72245288121879,1.3320593854200968]}},{"type":"Feature","properties":{"Name":"OCN (Singapore) Pte Ltd","Address":"Blk 501 West Coast Dr #01-266   Singapore 120501","PostalCode":120501,"Xcoord":19713.9563,"Ycoord":32620.182,"SingPoolsB":0,"Gp1Gp2Winn":27},"geometry":{"type":"Point","coordinates":[103.75886443594847,1.311278741940095]}},{"type":"Feature","properties":{"Name":"Ong Eng Siang Trading","Address":"Blk 71 Seng Poh Rd #01-43   Singapore 160071","PostalCode":160071,"Xcoord":27909.4576,"Ycoord":29630.6591,"SingPoolsB":0,"Gp1Gp2Winn":26},"geometry":{"type":"Point","coordinates":[103.83250502010733,1.2842436630889122]}},{"type":"Feature","properties":{"Name":"Oversea Emporium (Pte) Ltd","Address":"1 Park Rd People's Park Complex #02-70   Singapore 059108","PostalCode":59108,"Xcoord":29031.2548,"Ycoord":29617.9408,"SingPoolsB":0,"Gp1Gp2Winn":20},"geometry":{"type":"Point","coordinates":[103.84258481035152,1.2841286265337715]}},{"type":"Feature","properties":{"Name":"Papillon Florist Pte Ltd","Address":"Blk 133 Jln Bukit Merah #01-1520   Singapore 160133","PostalCode":160133,"Xcoord":27341.4238,"Ycoord":29111.7234,"SingPoolsB":0,"Gp1Gp2Winn":13},"geometry":{"type":"Point","coordinates":[103.82740102298065,1.2795505838310146]}},{"type":"Feature","properties":{"Name":"PFG Framing And Trading","Address":"Blk 960 Jurong West St 92 #01-182   Singapore 640960","PostalCode":640960,"Xcoord":12212.6174,"Ycoord":35949.5464,"SingPoolsB":0,"Gp1Gp2Winn":37},"geometry":{"type":"Point","coordinates":[103.69145963916854,1.3413853115214902]}},{"type":"Feature","properties":{"Name":"Pinthely Floral Centre","Address":"5001 Beach Road #02-35 Golden Mile Complex   Singapore 199588","PostalCode":199588,"Xcoord":31557.5081,"Ycoord":31688.9328,"SingPoolsB":0,"Gp1Gp2Winn":28},"geometry":{"type":"Point","coordinates":[103.86528442516068,1.3028577631892122]}},{"type":"Feature","properties":{"Name":"Poon Long Heng","Address":"Blk 716 Yishun St 71 #01-276   Singapore 760716","PostalCode":760716,"Xcoord":27375.1924,"Ycoord":45328.6798,"SingPoolsB":0,"Gp1Gp2Winn":21},"geometry":{"type":"Point","coordinates":[103.82770410861974,1.4262109658543671]}},{"type":"Feature","properties":{"Name":"Precise Optics","Address":"111 North Bridge Rd Peninsula Plaza #02-42   Singapore 179098","PostalCode":179098,"Xcoord":29945.8452,"Ycoord":30524.0807,"SingPoolsB":0,"Gp1Gp2Winn":35},"geometry":{"type":"Point","coordinates":[103.85080282136383,1.292323394009908]}},{"type":"Feature","properties":{"Name":"Premier Security Cooperative Society Ltd","Address":"Blk 574 Ang Mo Kio Ave 10 #01-1823   Singapore 560574","PostalCode":560574,"Xcoord":30566.8318,"Ycoord":39180.8906,"SingPoolsB":0,"Gp1Gp2Winn":11},"geometry":{"type":"Point","coordinates":[103.85638337547152,1.3706124646794962]}},{"type":"Feature","properties":{"Name":"Prime Chai Chee","Address":"25A Chai Chee Rd #01-459   Singapore 461025","PostalCode":461025,"Xcoord":38108.1666,"Ycoord":33948.2222,"SingPoolsB":0,"Gp1Gp2Winn":12},"geometry":{"type":"Point","coordinates":[103.92414580742539,1.323288510298524]}},{"type":"Feature","properties":{"Name":"Prime Compassvale St","Address":"Blk 263 Compassvale St #01-01   Singapore 540263","PostalCode":540263,"Xcoord":34970.8476,"Ycoord":41860.8552,"SingPoolsB":0,"Gp1Gp2Winn":15},"geometry":{"type":"Point","coordinates":[103.89595719226088,1.3948483779679675]}},{"type":"Feature","properties":{"Name":"Prime Keat Hong","Address":"Blk 253 Choa Chu Kang Avenue 1 #01-07 to 10 Keat Hong Shopping Centre   Singapore 680253","PostalCode":680253,"Xcoord":18121.0396,"Ycoord":39862.7599,"SingPoolsB":0,"Gp1Gp2Winn":2},"geometry":{"type":"Point","coordinates":[103.74454894789952,1.3767774950794538]}},{"type":"Feature","properties":{"Name":"Prime Punggol Field","Address":"Blk 108 Punggol Field #01-02   Singapore 820108","PostalCode":820108,"Xcoord":36409.4712,"Ycoord":42039.9911,"SingPoolsB":0,"Gp1Gp2Winn":29},"geometry":{"type":"Point","coordinates":[103.90888441506651,1.3964680354202341]}},{"type":"Feature","properties":{"Name":"Prime Woodlands","Address":"Blk 678 Woodlands Ave 6 #01-716   Singapore 730678","PostalCode":730678,"Xcoord":24455.8762,"Ycoord":46824.9787,"SingPoolsB":0,"Gp1Gp2Winn":29},"geometry":{"type":"Point","coordinates":[103.8014711873571,1.4397427343165885]}},{"type":"Feature","properties":{"Name":"Ram's Shop 1996","Address":"304 Orchard Rd Lucky Plaza #B1-119   Singapore 238863","PostalCode":238863,"Xcoord":28076.41,"Ycoord":31866.4964,"SingPoolsB":0,"Gp1Gp2Winn":45},"geometry":{"type":"Point","coordinates":[103.8340051586509,1.304463789625809]}},{"type":"Feature","properties":{"Name":"Rangoon Provision Shop","Address":"681 Race Course Road #01-309   Singapore 210681","PostalCode":210681,"Xcoord":30441.7351,"Ycoord":32888.5134,"SingPoolsB":0,"Gp1Gp2Winn":21},"geometry":{"type":"Point","coordinates":[103.85525878652557,1.3137064542704462]}},{"type":"Feature","properties":{"Name":"S E Store","Address":"Blk 352 Jurong East St 31 #01-121   Singapore 600352","PostalCode":600352,"Xcoord":16546.7245,"Ycoord":36341.8715,"SingPoolsB":0,"Gp1Gp2Winn":27},"geometry":{"type":"Point","coordinates":[103.73040394792524,1.3449353148277932]}},{"type":"Feature","properties":{"Name":"Sangara Trading","Address":"Blk 305 Woodlands St 31 #01-63   Singapore 730305","PostalCode":730305,"Xcoord":21409.8301,"Ycoord":45787.4386,"SingPoolsB":0,"Gp1Gp2Winn":18},"geometry":{"type":"Point","coordinates":[103.7740997566771,1.4303590522554397]}},{"type":"Feature","properties":{"Name":"Seah Geok Eng Agency","Address":"Blk 118 Rivervale Dr Rivervale Plaza #01-15   Singapore 540118","PostalCode":540118,"Xcoord":35641.3019,"Ycoord":40820.692,"SingPoolsB":0,"Gp1Gp2Winn":42},"geometry":{"type":"Point","coordinates":[103.90198148328635,1.3854413527878333]}},{"type":"Feature","properties":{"Name":"Seah Koon Huat","Address":"Blk 116 Bukit Merah View #01-233   Singapore 151116","PostalCode":151116,"Xcoord":26688.0496,"Ycoord":29729.2245,"SingPoolsB":0,"Gp1Gp2Winn":36},"geometry":{"type":"Point","coordinates":[103.8215301830409,1.285135026673661]}},{"type":"Feature","properties":{"Name":"Seng Yeok Chan Agency","Address":"Blk 338 Ang Mo Kio Ave 1 #01-1657   Singapore 560338","PostalCode":560338,"Xcoord":29736.1849,"Ycoord":38430.1374,"SingPoolsB":0,"Gp1Gp2Winn":33},"geometry":{"type":"Point","coordinates":[103.84891938283552,1.3638229815411516]}},{"type":"Feature","properties":{"Name":"Sheng Moh Fruits & Prov Store","Address":"29 Jln Mas Puteh   Singapore 128632","PostalCode":128632,"Xcoord":20074.8517,"Ycoord":32298.4669,"SingPoolsB":0,"Gp1Gp2Winn":31},"geometry":{"type":"Point","coordinates":[103.76210733752708,1.3083693612641498]}},{"type":"Feature","properties":{"Name":"Shop N Save Beauty World","Address":"144 Upp Bukit Timah Rd Beauty World Centre #B1-01   Singapore 588177","PostalCode":588177,"Xcoord":21681.0912,"Ycoord":36062.7591,"SingPoolsB":0,"Gp1Gp2Winn":10},"geometry":{"type":"Point","coordinates":[103.77653938552257,1.3424126417578164]}},{"type":"Feature","properties":{"Name":"Shop N Save Buangkok Cresent","Address":"Blk 982 Buangkok Cresent #01-01   Singapore 530982","PostalCode":530982,"Xcoord":33120.7976,"Ycoord":40310.6194,"SingPoolsB":0,"Gp1Gp2Winn":9},"geometry":{"type":"Point","coordinates":[103.8793327539835,1.380828991767584]}},{"type":"Feature","properties":{"Name":"Shop N Save Compassvale Bow","Address":"Blk 266 Compassvale Bow #01-02   Singapore 540266","PostalCode":540266,"Xcoord":35094.8931,"Ycoord":40431.4526,"SingPoolsB":0,"Gp1Gp2Winn":12},"geometry":{"type":"Point","coordinates":[103.89707149313936,1.381921351296201]}},{"type":"Feature","properties":{"Name":"Shop N Save Greenridge","Address":"Blk 524A Jelapang Rd Greenridge Shopping Centre #03-13/18   Singapore 671524","PostalCode":671524,"Xcoord":20533.7299,"Ycoord":40816.744,"SingPoolsB":0,"Gp1Gp2Winn":12},"geometry":{"type":"Point","coordinates":[103.7662284681684,1.3854056930043062]}},{"type":"Feature","properties":{"Name":"Singapore Armed Forces Football Club","Address":"1 Choa Chu Kang St 53 Choa Chu Kang Stadium #02-06   Singapore 689236","PostalCode":689236,"Xcoord":18510.275,"Ycoord":41410.8079,"SingPoolsB":0,"Gp1Gp2Winn":5},"geometry":{"type":"Point","coordinates":[103.74804600784474,1.3907775995592544]}},{"type":"Feature","properties":{"Name":"Singapore Turf Club Bedok Centre","Address":"Blk 215 Bedok North St 1 #02-87   Singapore 460215","PostalCode":460215,"Xcoord":39147.5156,"Ycoord":34254.6374,"SingPoolsB":0,"Gp1Gp2Winn":2},"geometry":{"type":"Point","coordinates":[103.9334850105644,1.3260592549666002]}},{"type":"Feature","properties":{"Name":"Singapore Turf Club Bukit Merah","Address":"Blk169 Jalan Bukit Merah #01-20   Singapore 150169","PostalCode":150169,"Xcoord":26393.2631,"Ycoord":29527.5027,"SingPoolsB":0,"Gp1Gp2Winn":3},"geometry":{"type":"Point","coordinates":[103.81888141936318,1.2833107118465215]}},{"type":"Feature","properties":{"Name":"Singapore Turf Club China Square","Address":"51 Telok Ayer Street   Singapore 048441","PostalCode":48441,"Xcoord":29776.5712,"Ycoord":29481.7606,"SingPoolsB":0,"Gp1Gp2Winn":1},"geometry":{"type":"Point","coordinates":[103.84928176434131,1.2828970274057228]}},{"type":"Feature","properties":{"Name":"Singapore Turf Club Holland Drive","Address":"Blk 47 Holland Drive #01-385   Singapore 270047","PostalCode":270047,"Xcoord":23444.7595,"Ycoord":32318.6874,"SingPoolsB":0,"Gp1Gp2Winn":5},"geometry":{"type":"Point","coordinates":[103.79238755812933,1.3085529094708857]}},{"type":"Feature","properties":{"Name":"Singapore Turf Club International Plaza","Address":"10 Anson Rd International Plaza #03-13/26   Singapore 079903","PostalCode":79903,"Xcoord":29406.343,"Ycoord":28703.2721,"SingPoolsB":0,"Gp1Gp2Winn":12},"geometry":{"type":"Point","coordinates":[103.84595508524727,1.2758566691348614]}},{"type":"Feature","properties":{"Name":"Singapore Turf Club Majestic","Address":"80 Eu Tong Sen Street   Singapore 059810","PostalCode":59810,"Xcoord":29097.5798,"Ycoord":29686.1714,"SingPoolsB":0,"Gp1Gp2Winn":0},"geometry":{"type":"Point","coordinates":[103.84318076898685,1.2847456778912036]}},{"type":"Feature","properties":{"Name":"Singapore Turf Club Pearl Centre","Address":"100A Eu Tong Sen St Pearls Centre #04-01 / #05-00   Singapore 059813","PostalCode":59813,"Xcoord":28820.5701,"Ycoord":29331.4314,"SingPoolsB":0,"Gp1Gp2Winn":0},"geometry":{"type":"Point","coordinates":[103.84069171785197,1.2815375422230222]}},{"type":"Feature","properties":{"Name":"Singapore Turf Club Racecourse","Address":"1 Turf Club Ave Singapore Racecourse   Singapore 738078","PostalCode":738078,"Xcoord":20117.9342,"Ycoord":44888.0601,"SingPoolsB":0,"Gp1Gp2Winn":0},"geometry":{"type":"Point","coordinates":[103.7624911215422,1.4222250734307536]}},{"type":"Feature","properties":{"Name":"Singapore Turf Club Rangoon","Address":"Blk 677 Rangoon Rd #02-00   Singapore 210677","PostalCode":210677,"Xcoord":30428.9953,"Ycoord":32759.2004,"SingPoolsB":0,"Gp1Gp2Winn":3},"geometry":{"type":"Point","coordinates":[103.85514430293945,1.3125369942291276]}},{"type":"Feature","properties":{"Name":"Singapore Turf Club Serangoon Ave 3","Address":"Blk 267 Serangoon Ave 3 #02-01 & #03-02   Singapore 550267","PostalCode":550267,"Xcoord":32189.2089,"Ycoord":37252.4012,"SingPoolsB":0,"Gp1Gp2Winn":4},"geometry":{"type":"Point","coordinates":[103.87096130741142,1.353171712059772]}},{"type":"Feature","properties":{"Name":"Singapore Turf Club Singapore Post Centre","Address":"10 Eunos Road 8 #03-01 Singapore Post Centre   Singapore 408600","PostalCode":408600,"Xcoord":34857.8559,"Ycoord":33467.3275,"SingPoolsB":0,"Gp1Gp2Winn":0},"geometry":{"type":"Point","coordinates":[103.89493995192028,1.3189403740793766]}},{"type":"Feature","properties":{"Name":"Soh Choo Trading","Address":"Blk 19 Marsiling Lane #01-303   Singapore 730019","PostalCode":730019,"Xcoord":21775.6229,"Ycoord":47253.772,"SingPoolsB":0,"Gp1Gp2Winn":23},"geometry":{"type":"Point","coordinates":[103.77738642234407,1.4436201168487597]}},{"type":"Feature","properties":{"Name":"Springdale Garments Co","Address":"Blk 408 Ang Mo Kio Ave 10 #01-795   Singapore 560408","PostalCode":560408,"Xcoord":30367.0097,"Ycoord":38238.6613,"SingPoolsB":0,"Gp1Gp2Winn":33},"geometry":{"type":"Point","coordinates":[103.85458775796398,1.3620912964411607]}},{"type":"Feature","properties":{"Name":"Subramaniam Store","Address":"100 Eu Tong Sen St Pearl's Centre #01-30   Singapore 059812","PostalCode":59812,"Xcoord":28816.9969,"Ycoord":29350.29,"SingPoolsB":0,"Gp1Gp2Winn":23},"geometry":{"type":"Point","coordinates":[103.84065961175799,1.2817080928796722]}},{"type":"Feature","properties":{"Name":"Superbowl Jurong Pte Ltd","Address":"3 Yuan Ching Rd   Singapore 618642","PostalCode":618642,"Xcoord":15969.8835,"Ycoord":34189.3194,"SingPoolsB":0,"Gp1Gp2Winn":28},"geometry":{"type":"Point","coordinates":[103.7252215379452,1.3254682061822687]}},{"type":"Feature","properties":{"Name":"Tampines Rovers Football Club","Address":"Blk 824 Tampines St 81 #01-14   Singapore 520824","PostalCode":520824,"Xcoord":39061.2837,"Ycoord":36795.8138,"SingPoolsB":0,"Gp1Gp2Winn":29},"geometry":{"type":"Point","coordinates":[103.93271109575727,1.349040749565055]}},{"type":"Feature","properties":{"Name":"Tampines Trading","Address":"Blk 828 Tampines St 81 #01-234   Singapore 520828","PostalCode":520828,"Xcoord":39297.1956,"Ycoord":36772.4648,"SingPoolsB":0,"Gp1Gp2Winn":45},"geometry":{"type":"Point","coordinates":[103.93483090001293,1.3488295017944953]}},{"type":"Feature","properties":{"Name":"Tan Ah Leck Trading","Address":"Blk 151 Bukit Batok St 11 #01-254   Singapore 650151","PostalCode":650151,"Xcoord":18080.8464,"Ycoord":36768.4191,"SingPoolsB":0,"Gp1Gp2Winn":41},"geometry":{"type":"Point","coordinates":[103.74418881197431,1.3487934008558577]}},{"type":"Feature","properties":{"Name":"Tan Boon Tin Agency","Address":"Blk 56 Marine Terrace #01-253   Singapore 440056","PostalCode":440056,"Xcoord":37132.078,"Ycoord":31992.8128,"SingPoolsB":0,"Gp1Gp2Winn":20},"geometry":{"type":"Point","coordinates":[103.91537456382808,1.3056048037355734]}},{"type":"Feature","properties":{"Name":"Tan Kai Huat Provision Shop","Address":"Blk 123 Hougang Ave 1 #01-1408   Singapore 530123","PostalCode":530123,"Xcoord":33891.6784,"Ycoord":37276.2743,"SingPoolsB":0,"Gp1Gp2Winn":17},"geometry":{"type":"Point","coordinates":[103.886259088591,1.353387324467148]}},{"type":"Feature","properties":{"Name":"Tan Wee Fong Trading","Address":"Blk 24 Bendemeer Rd #01-529   Singapore 330024","PostalCode":330024,"Xcoord":31226.7899,"Ycoord":33431.0491,"SingPoolsB":0,"Gp1Gp2Winn":39},"geometry":{"type":"Point","coordinates":[103.86231295145394,1.318612882609141]}},{"type":"Feature","properties":{"Name":"Tay Ah Tho Trading","Address":"Blk 768 Woodlands Ave 6 Woodlands Mart #01-21   Singapore 730768","PostalCode":730768,"Xcoord":24093.9794,"Ycoord":47496.2011,"SingPoolsB":0,"Gp1Gp2Winn":17},"geometry":{"type":"Point","coordinates":[103.7982191007987,1.4458129769709516]}},{"type":"Feature","properties":{"Name":"Tay Sui Lan Agency","Address":"11 Collyer Quay The Arcade #02-13   Singapore 049317","PostalCode":49317,"Xcoord":30085.6391,"Ycoord":29561.6857,"SingPoolsB":0,"Gp1Gp2Winn":59},"geometry":{"type":"Point","coordinates":[103.85205886511017,1.2836198229997322]}},{"type":"Feature","properties":{"Name":"Teo Khar Bee Agency","Address":"87 Maude Rd #01-01   Singapore 208358","PostalCode":208358,"Xcoord":30717.406,"Ycoord":32290.9359,"SingPoolsB":0,"Gp1Gp2Winn":23},"geometry":{"type":"Point","coordinates":[103.8577357745522,1.3083021515514344]}},{"type":"Feature","properties":{"Name":"Teo Sook Cheng Agency","Address":"Blk 293 Yishun St 22 #01-225   Singapore 760293","PostalCode":760293,"Xcoord":28505.2153,"Ycoord":46401.8117,"SingPoolsB":0,"Gp1Gp2Winn":44},"geometry":{"type":"Point","coordinates":[103.83785842071808,1.435915984843572]}},{"type":"Feature","properties":{"Name":"The Little Plaza","Address":"Blk 399 Yung Sheng Road #01-07 Taman Jurong Shopping Centre   Singapore 610399","PostalCode":610399,"Xcoord":15440.2441,"Ycoord":35226.169,"SingPoolsB":0,"Gp1Gp2Winn":30},"geometry":{"type":"Point","coordinates":[103.72046202423405,1.3348448747637653]}},{"type":"Feature","properties":{"Name":"Thiam Hoon Traders","Address":"Blk 123 Bukit Merah Lane 1 #01-110   Singapore 150123","PostalCode":150123,"Xcoord":24739.2066,"Ycoord":29919.0185,"SingPoolsB":0,"Gp1Gp2Winn":32},"geometry":{"type":"Point","coordinates":[103.80401903488703,1.2868513149363332]}},{"type":"Feature","properties":{"Name":"Tong Aik Huat","Address":"Blk 685 Hougang St 61 #01-160   Singapore 530685","PostalCode":530685,"Xcoord":33856.8463,"Ycoord":39668.9605,"SingPoolsB":0,"Gp1Gp2Winn":44},"geometry":{"type":"Point","coordinates":[103.88594656994604,1.3750259226478685]}},{"type":"Feature","properties":{"Name":"TST Medical Hall","Address":"448 Joo Chiat Rd   Singapore 427661","PostalCode":427661,"Xcoord":35909.2669,"Ycoord":32085.8983,"SingPoolsB":0,"Gp1Gp2Winn":28},"geometry":{"type":"Point","coordinates":[103.90438706491328,1.3064469721795797]}},{"type":"Feature","properties":{"Name":"Tuas View","Address":"71 Pioneer Rd Tuas Amenity Centre #02-02/03   Singapore 639591","PostalCode":639591,"Xcoord":7844.1942,"Ycoord":33275.9943,"SingPoolsB":0,"Gp1Gp2Winn":27},"geometry":{"type":"Point","coordinates":[103.65220866059991,1.3172041678652786]}},{"type":"Feature","properties":{"Name":"Tuck Lee Long","Address":"Blk 159 Ang Mo Kio Ave 4 #01-536   Singapore 560159","PostalCode":560159,"Xcoord":28711.6734,"Ycoord":39618.2894,"SingPoolsB":0,"Gp1Gp2Winn":31},"geometry":{"type":"Point","coordinates":[103.83971347759893,1.3745682461691409]}},{"type":"Feature","properties":{"Name":"Uni-Foto Pte Ltd","Address":"400 Orchard Rd Orchard Towers #B1-11   Singapore 238875","PostalCode":238875,"Xcoord":27532.2641,"Ycoord":32146.5743,"SingPoolsB":0,"Gp1Gp2Winn":24},"geometry":{"type":"Point","coordinates":[103.82911574998113,1.3069967119847306]}},{"type":"Feature","properties":{"Name":"Vijaya Darshana Agency","Address":"810 Geylang Rd City Plaza #01-58/59   Singapore 409286","PostalCode":409286,"Xcoord":34695.1063,"Ycoord":33009.7527,"SingPoolsB":0,"Gp1Gp2Winn":24},"geometry":{"type":"Point","coordinates":[103.89347746417167,1.3148022674911453]}},{"type":"Feature","properties":{"Name":"Vitatron & Medical Co","Address":"60 Smith St   Singapore 058963","PostalCode":58963,"Xcoord":29114.1366,"Ycoord":29486.8593,"SingPoolsB":0,"Gp1Gp2Winn":28},"geometry":{"type":"Point","coordinates":[103.84332953139723,1.2829431686273127]}},{"type":"Feature","properties":{"Name":"Wanrise","Address":"Blk 53 Sims Place #01-172   Singapore 380053","PostalCode":380053,"Xcoord":33203.2127,"Ycoord":33344.5997,"SingPoolsB":0,"Gp1Gp2Winn":37},"geometry":{"type":"Point","coordinates":[103.88007211239295,1.3178307932523259]}},{"type":"Feature","properties":{"Name":"Whampoa Tat Lee Trading","Address":"865 Mountbatten Rd Katong Shopping Centre #01-26   Singapore 437844","PostalCode":437844,"Xcoord":35550.3232,"Ycoord":31792.9931,"SingPoolsB":0,"Gp1Gp2Winn":14},"geometry":{"type":"Point","coordinates":[103.90116171741413,1.3037981323226469]}},{"type":"Feature","properties":{"Name":"Wong Teck Chow Enterprise Pte Ltd","Address":"390 Victoria St Golden Landmark Shopping Centre #01-33   Singapore 188061","PostalCode":188061,"Xcoord":30722.5771,"Ycoord":31584.4494,"SingPoolsB":0,"Gp1Gp2Winn":13},"geometry":{"type":"Point","coordinates":[103.857782177664,1.3019129366995137]}},{"type":"Feature","properties":{"Name":"Woodlands Wellington Football Club","Address":"1 Woodlands St 12 Woodlands Stadium   Singapore 738619","PostalCode":738597,"Xcoord":22113.76635,"Ycoord":46300.87918,"SingPoolsB":0,"Gp1Gp2Winn":8},"geometry":{"type":"Point","coordinates":[103.78042517184967,1.4350025765167032]}},{"type":"Feature","properties":{"Name":"Xie Sheng Dept Service Co","Address":"Blk 632 Bedok Reservoir Rd #01-820   Singapore 470632","PostalCode":470632,"Xcoord":36995.2776,"Ycoord":34917.0434,"SingPoolsB":0,"Gp1Gp2Winn":30},"geometry":{"type":"Point","coordinates":[103.91414620216557,1.3320505256214568]}},{"type":"Feature","properties":{"Name":"Yeo Kean Fatt Dept Store","Address":"Blk 17 Bedok South Rd #01-583   Singapore 460017","PostalCode":460017,"Xcoord":39378.9022,"Ycoord":33601.1242,"SingPoolsB":0,"Gp1Gp2Winn":20},"geometry":{"type":"Point","coordinates":[103.93556389965578,1.3201490366436601]}},{"type":"Feature","properties":{"Name":"Yeo Soon Huat","Address":"Blk 70 Lor 4 Toa Payoh #01-347   Singapore 310070","PostalCode":310070,"Xcoord":30125.8208,"Ycoord":35180.2935,"SingPoolsB":0,"Gp1Gp2Winn":17},"geometry":{"type":"Point","coordinates":[103.85242029764937,1.334432525131879]}},{"type":"Feature","properties":{"Name":"Yong Lai Peck Trading","Address":"64 Jln Jurong Kechil   Singapore 598585","PostalCode":598585,"Xcoord":21393.78,"Ycoord":35858.7516,"SingPoolsB":0,"Gp1Gp2Winn":20},"geometry":{"type":"Point","coordinates":[103.77395776709083,1.3405676096378834]}}]}